{
"type": "FeatureCollection",
"name": "roads",
"crs": { "type": "name", "properties": { "name": "urn:ogc:def:crs:OGC:1.3:CRS84" } },
"features": [
{ "type": "Feature", "properties": { "road_id": "BLK-ROAD-1", "segment_id": "BLK-1-9142013800547738005405" }, "geometry": { "type": "LineString", "coordinates": [ [ -84.441216791590662, 42.260958143291454 ], [ -84.441213383841216, 42.261991746635772 ] ] } },
{ "type": "Feature", "properties": { "road_id": "BLK-ROAD-2", "segment_id": "BLK-2-9146063800548038005477" }, "geometry": { "type": "LineString", "coordinates": [ [ -84.442932514873746, 42.260955637658562 ], [ -84.442704755207856, 42.260953175944167 ], [ -84.441216791590662, 42.260958143291454 ] ] } },
{ "type": "Feature", "properties": { "road_id": "BLK-ROAD-3", "segment_id": "BLK-3-8974083800548038005410" }, "geometry": { "type": "LineString", "coordinates": [ [ -84.442932514873746, 42.260955637658562 ], [ -84.442944207983089, 42.261988218179589 ] ] } },
{ "type": "Feature", "properties": { "road_id": "BLK-ROAD-4", "segment_id": "BLK-4-9142013800553638005477" }, "geometry": { "type": "LineString", "coordinates": [ [ -84.441212418917715, 42.259997751791033 ], [ -84.441216791590662, 42.260958143291454 ] ] } },
{ "type": "Feature", "properties": { "road_id": "BLK-ROAD-5", "segment_id": "BLK-5-9146053800553438005536" }, "geometry": { "type": "LineString", "coordinates": [ [ -84.442944561442161, 42.260004287314402 ], [ -84.441212418917715, 42.259997751791033 ] ] } },
{ "type": "Feature", "properties": { "road_id": "BLK-ROAD-6", "segment_id": "BLK-6-8974083800553438005480" }, "geometry": { "type": "LineString", "coordinates": [ [ -84.442944561442161, 42.260004287314402 ], [ -84.442932514873746, 42.260955637658562 ] ] } },
{ "type": "Feature", "properties": { "road_id": "BLK-ROAD-7", "segment_id": "BLK-7-9142083800565738005384" }, "geometry": { "type": "LineString", "coordinates": [ [ -84.434484591042462, 42.258991616573688 ], [ -84.434516562306612, 42.262007037897369 ] ] } },
{ "type": "Feature", "properties": { "road_id": "BLK-ROAD-8", "segment_id": "BLK-8-9144093800564938005382" }, "geometry": { "type": "LineString", "coordinates": [ [ -84.433151422491079, 42.258968130767727 ], [ -84.433108221927327, 42.261983742920357 ] ] } },
{ "type": "Feature", "properties": { "road_id": "BLK-ROAD-9", "segment_id": "BLK-9-9143013800565738005649" }, "geometry": { "type": "LineString", "coordinates": [ [ -84.434484591042462, 42.258991616573688 ], [ -84.433151422491079, 42.258968130767727 ] ] } },
{ "type": "Feature", "properties": { "road_id": "BLK-ROAD-10", "segment_id": "BLK-10-8974083800564238005534" }, "geometry": { "type": "LineString", "coordinates": [ [ -84.442940720914692, 42.259093530513603 ], [ -84.442944561442161, 42.260004287314402 ] ] } },
{ "type": "Feature", "properties": { "road_id": "BLK-ROAD-11", "segment_id": "BLK-11-9143013800565838005657" }, "geometry": { "type": "LineString", "coordinates": [ [ -84.435867177905536, 42.258981686876858 ], [ -84.434484591042462, 42.258991616573688 ] ] } },
{ "type": "Feature", "properties": { "road_id": "BLK-ROAD-12", "segment_id": "BLK-12-9142073800565838005390" }, "geometry": { "type": "LineString", "coordinates": [ [ -84.435867177905536, 42.258981686876858 ], [ -84.435846936343651, 42.261998024783566 ] ] } },
{ "type": "Feature", "properties": { "road_id": "BLK-ROAD-13", "segment_id": "BLK-13-9143013800565938005658" }, "geometry": { "type": "LineString", "coordinates": [ [ -84.437068462628062, 42.258986480038665 ], [ -84.435867177905536, 42.258981686876858 ] ] } },
{ "type": "Feature", "properties": { "road_id": "BLK-ROAD-14", "segment_id": "BLK-14-9142063800565938005391" }, "geometry": { "type": "LineString", "coordinates": [ [ -84.437068462628062, 42.258986480038665 ], [ -84.437042571920756, 42.261991528436582 ] ] } },
{ "type": "Feature", "properties": { "road_id": "BLK-ROAD-15", "segment_id": "BLK-15-9143013800566138005659" }, "geometry": { "type": "LineString", "coordinates": [ [ -84.438212021936295, 42.258982937549241 ], [ -84.437068462628062, 42.258986480038665 ] ] } },
{ "type": "Feature", "properties": { "road_id": "BLK-ROAD-16", "segment_id": "BLK-16-9142053800566138005396" }, "geometry": { "type": "LineString", "coordinates": [ [ -84.438212021936295, 42.258982937549241 ], [ -84.438184118204703, 42.261994403091492 ] ] } },
{ "type": "Feature", "properties": { "road_id": "BLK-ROAD-17", "segment_id": "BLK-17-9142013800566538005536" }, "geometry": { "type": "LineString", "coordinates": [ [ -84.44121824555728, 42.259014188222359 ], [ -84.441212418917715, 42.259997751791033 ] ] } },
{ "type": "Feature", "properties": { "road_id": "BLK-ROAD-18", "segment_id": "BLK-18-9142033800566438005402" }, "geometry": { "type": "LineString", "coordinates": [ [ -84.440446391200538, 42.259002423044237 ], [ -84.440438093260596, 42.261996791043082 ] ] } },
{ "type": "Feature", "properties": { "road_id": "BLK-ROAD-19", "segment_id": "BLK-19-9143013800566538005664" }, "geometry": { "type": "LineString", "coordinates": [ [ -84.44121824555728, 42.259014188222359 ], [ -84.440446391200538, 42.259002423044237 ] ] } },
{ "type": "Feature", "properties": { "road_id": "BLK-ROAD-20", "segment_id": "BLK-20-9143013800566338005661" }, "geometry": { "type": "LineString", "coordinates": [ [ -84.43932894828724, 42.258970337686165 ], [ -84.438212021936295, 42.258982937549241 ] ] } },
{ "type": "Feature", "properties": { "road_id": "BLK-ROAD-21", "segment_id": "BLK-21-9142043800566338005398" }, "geometry": { "type": "LineString", "coordinates": [ [ -84.43932894828724, 42.258970337686165 ], [ -84.439305240465558, 42.261993846565204 ] ] } },
{ "type": "Feature", "properties": { "road_id": "BLK-ROAD-22", "segment_id": "BLK-22-9143013800566438005663" }, "geometry": { "type": "LineString", "coordinates": [ [ -84.440446391200538, 42.259002423044237 ], [ -84.43932894828724, 42.258970337686165 ] ] } },
{ "type": "Feature", "properties": { "road_id": "BLK-ROAD-23", "segment_id": "BLK-23-9143013800567038005665" }, "geometry": { "type": "LineString", "coordinates": [ [ -84.442944349489281, 42.25900237063172 ], [ -84.44121824555728, 42.259014188222359 ] ] } },
{ "type": "Feature", "properties": { "road_id": "BLK-ROAD-24", "segment_id": "BLK-24-8974083800567038005642" }, "geometry": { "type": "LineString", "coordinates": [ [ -84.442944349489281, 42.25900237063172 ], [ -84.442940720914692, 42.259093530513603 ] ] } },
{ "type": "Feature", "properties": { "road_id": "BLK-ROAD-25", "segment_id": "BLK-25-9141073800564838005415" }, "geometry": { "type": "LineString", "coordinates": [ [ -84.44535987943037, 42.259018120692971 ], [ -84.445356974015994, 42.261970604211974 ] ] } },
{ "type": "Feature", "properties": { "road_id": "BLK-ROAD-26", "segment_id": "BLK-26-33815803800564638005670" }, "geometry": { "type": "LineString", "coordinates": [ [ -84.444118826633783, 42.258999677236297 ], [ -84.442944349489281, 42.25900237063172 ] ] } },
{ "type": "Feature", "properties": { "road_id": "BLK-ROAD-27", "segment_id": "BLK-27-9141093800564638005413" }, "geometry": { "type": "LineString", "coordinates": [ [ -84.444118826633783, 42.258999677236297 ], [ -84.444124842777484, 42.261973196462137 ] ] } },
{ "type": "Feature", "properties": { "road_id": "BLK-ROAD-28", "segment_id": "BLK-28-33815803800564838005646" }, "geometry": { "type": "LineString", "coordinates": [ [ -84.44535987943037, 42.259018120692971 ], [ -84.444118826633783, 42.258999677236297 ] ] } },
{ "type": "Feature", "properties": { "road_id": "BLK-ROAD-29", "segment_id": "BLK-29-33815803800565238005648" }, "geometry": { "type": "LineString", "coordinates": [ [ -84.446583122232596, 42.259023766348818 ], [ -84.44535987943037, 42.259018120692971 ] ] } },
{ "type": "Feature", "properties": { "road_id": "BLK-ROAD-30", "segment_id": "BLK-30-9141053800565238005417" }, "geometry": { "type": "LineString", "coordinates": [ [ -84.446583122232596, 42.259023766348818 ], [ -84.446561580883625, 42.261979636602746 ] ] } },
{ "type": "Feature", "properties": { "road_id": "BLK-ROAD-31", "segment_id": "BLK-31-33801123800565438005421" }, "geometry": { "type": "LineString", "coordinates": [ [ -84.447756000261677, 42.259025482102061 ], [ -84.447761180257359, 42.260498945985866 ], [ -84.447783398629539, 42.260678130366301 ], [ -84.44788109225594, 42.260950516692354 ], [ -84.448040780152368, 42.26136831405514 ], [ -84.448257295912626, 42.261983414329535 ] ] } },
{ "type": "Feature", "properties": { "road_id": "BLK-ROAD-32", "segment_id": "BLK-32-9000013801857338017068" }, "geometry": { "type": "LineString", "coordinates": [ [ -84.477326268004177, 42.259211584921999 ], [ -84.477097738032782, 42.25922219174204 ] ] } },
{ "type": "Feature", "properties": { "road_id": "BLK-ROAD-33", "segment_id": "BLK-33-8998023800572038020142" }, "geometry": { "type": "LineString", "coordinates": [ [ -84.476327247512728, 42.258882059248123 ], [ -84.476348951165676, 42.259283171409969 ], [ -84.47652305357694, 42.262788512338091 ] ] } },
{ "type": "Feature", "properties": { "road_id": "BLK-ROAD-34", "segment_id": "BLK-34-8998013800572238020141" }, "geometry": { "type": "LineString", "coordinates": [ [ -84.476673459203951, 42.25886585531196 ], [ -84.476687084283625, 42.259252724241342 ], [ -84.476851157005882, 42.261974175515924 ], [ -84.476901506471322, 42.262777516686164 ] ] } },
{ "type": "Feature", "properties": { "road_id": "BLK-ROAD-35", "segment_id": "BLK-35-9000013801669438018573" }, "geometry": { "type": "LineString", "coordinates": [ [ -84.483246260290457, 42.258936651973627 ], [ -84.477326268004177, 42.259211584921999 ] ] } },
{ "type": "Feature", "properties": { "road_id": "BLK-ROAD-36", "segment_id": "BLK-36-9048093801669438005448" }, "geometry": { "type": "LineString", "coordinates": [ [ -84.483246260290457, 42.258936651973627 ], [ -84.483220504294721, 42.259348960684378 ], [ -84.483213091281243, 42.262075190376578 ] ] } },
{ "type": "Feature", "properties": { "road_id": "BLK-ROAD-37", "segment_id": "BLK-37-9142013800574738005665" }, "geometry": { "type": "LineString", "coordinates": [ [ -84.441220471246467, 42.258065464081838 ], [ -84.44121824555728, 42.259014188222359 ] ] } },
{ "type": "Feature", "properties": { "road_id": "BLK-ROAD-38", "segment_id": "BLK-38-8974083800574838005670" }, "geometry": { "type": "LineString", "coordinates": [ [ -84.442960202255748, 42.25807812570158 ], [ -84.442944349489281, 42.25900237063172 ] ] } },
{ "type": "Feature", "properties": { "road_id": "BLK-ROAD-39", "segment_id": "BLK-39-9146043800574838005747" }, "geometry": { "type": "LineString", "coordinates": [ [ -84.442960202255748, 42.25807812570158 ], [ -84.44137480967521, 42.258051049579741 ], [ -84.441220471246467, 42.258065464081838 ] ] } },
{ "type": "Feature", "properties": { "road_id": "BLK-ROAD-40", "segment_id": "BLK-40-9048093801856038016694" }, "geometry": { "type": "LineString", "coordinates": [ [ -84.483247652979784, 42.258447633575365 ], [ -84.483246260290457, 42.258936651973627 ] ] } },
{ "type": "Feature", "properties": { "road_id": "BLK-ROAD-41", "segment_id": "BLK-41-9142033800579938005664" }, "geometry": { "type": "LineString", "coordinates": [ [ -84.440463994975929, 42.25716439275395 ], [ -84.440457807373335, 42.258085465124836 ], [ -84.440446391200538, 42.259002423044237 ] ] } },
{ "type": "Feature", "properties": { "road_id": "BLK-ROAD-42", "segment_id": "BLK-42-9146033800580238005799" }, "geometry": { "type": "LineString", "coordinates": [ [ -84.441206940906497, 42.257173483478986 ], [ -84.440463994975929, 42.25716439275395 ] ] } },
{ "type": "Feature", "properties": { "road_id": "BLK-ROAD-43", "segment_id": "BLK-43-9142013800580238005747" }, "geometry": { "type": "LineString", "coordinates": [ [ -84.441206940906497, 42.257173483478986 ], [ -84.441220471246467, 42.258065464081838 ] ] } },
{ "type": "Feature", "properties": { "road_id": "BLK-ROAD-44", "segment_id": "BLK-44-9146033800580638005802" }, "geometry": { "type": "LineString", "coordinates": [ [ -84.442961081697476, 42.257161804865035 ], [ -84.441206940906497, 42.257173483478986 ] ] } },
{ "type": "Feature", "properties": { "road_id": "BLK-ROAD-45", "segment_id": "BLK-45-8974083800580638005748" }, "geometry": { "type": "LineString", "coordinates": [ [ -84.442961081697476, 42.257161804865035 ], [ -84.442960202255748, 42.25807812570158 ] ] } },
{ "type": "Feature", "properties": { "road_id": "BLK-ROAD-46", "segment_id": "BLK-46-33800538302158238017069" }, "geometry": { "type": "LineString", "coordinates": [ [ -84.469154910467466, 42.257509356950699 ], [ -84.470158050332458, 42.258246723244866 ], [ -84.471177738185176, 42.259003211889059 ], [ -84.471640892128292, 42.259290651535395 ], [ -84.471854231159668, 42.259375564994016 ], [ -84.47208931409979, 42.259431499270939 ], [ -84.472411902760314, 42.259455456831176 ], [ -84.472891522462845, 42.259424163171701 ], [ -84.473863868059254, 42.259380097040179 ], [ -84.475551832119365, 42.259311773428266 ], [ -84.47584325711891, 42.259305266011722 ] ] } },
{ "type": "Feature", "properties": { "road_id": "BLK-ROAD-47", "segment_id": "BLK-47-9144093800584338005649" }, "geometry": { "type": "LineString", "coordinates": [ [ -84.433176599499973, 42.256689683339367 ], [ -84.433151422491079, 42.258968130767727 ] ] } },
{ "type": "Feature", "properties": { "road_id": "BLK-ROAD-48", "segment_id": "BLK-48-8983073800585138005843" }, "geometry": { "type": "LineString", "coordinates": [ [ -84.434525566430565, 42.256691112133915 ], [ -84.433176599499973, 42.256689683339367 ] ] } },
{ "type": "Feature", "properties": { "road_id": "BLK-ROAD-49", "segment_id": "BLK-49-9142083800585138005657" }, "geometry": { "type": "LineString", "coordinates": [ [ -84.434525566430565, 42.256691112133915 ], [ -84.434484591042462, 42.258991616573688 ] ] } },
{ "type": "Feature", "properties": { "road_id": "BLK-ROAD-50", "segment_id": "BLK-50-8983073800585838005851" }, "geometry": { "type": "LineString", "coordinates": [ [ -84.435897365635583, 42.256706329441442 ], [ -84.434525566430565, 42.256691112133915 ] ] } },
{ "type": "Feature", "properties": { "road_id": "BLK-ROAD-51", "segment_id": "BLK-51-9142073800585838005658" }, "geometry": { "type": "LineString", "coordinates": [ [ -84.435897365635583, 42.256706329441442 ], [ -84.435867177905536, 42.258981686876858 ] ] } },
{ "type": "Feature", "properties": { "road_id": "BLK-ROAD-52", "segment_id": "BLK-52-9142063800585338005659" }, "geometry": { "type": "LineString", "coordinates": [ [ -84.437064709047391, 42.256697113894525 ], [ -84.437068462628062, 42.258986480038665 ] ] } },
{ "type": "Feature", "properties": { "road_id": "BLK-ROAD-53", "segment_id": "BLK-53-9174013800586238005853" }, "geometry": { "type": "LineString", "coordinates": [ [ -84.438208790357336, 42.256683925696194 ], [ -84.437064709047391, 42.256697113894525 ] ] } },
{ "type": "Feature", "properties": { "road_id": "BLK-ROAD-54", "segment_id": "BLK-54-9142053800586238005661" }, "geometry": { "type": "LineString", "coordinates": [ [ -84.438208790357336, 42.256683925696194 ], [ -84.438212021936295, 42.258982937549241 ] ] } },
{ "type": "Feature", "properties": { "road_id": "BLK-ROAD-55", "segment_id": "BLK-55-9174013800586638005862" }, "geometry": { "type": "LineString", "coordinates": [ [ -84.439329809262333, 42.256686636980419 ], [ -84.438208790357336, 42.256683925696194 ] ] } },
{ "type": "Feature", "properties": { "road_id": "BLK-ROAD-56", "segment_id": "BLK-56-9142043800586638005663" }, "geometry": { "type": "LineString", "coordinates": [ [ -84.439329809262333, 42.256686636980419 ], [ -84.43932894828724, 42.258970337686165 ] ] } },
{ "type": "Feature", "properties": { "road_id": "BLK-ROAD-57", "segment_id": "BLK-57-9174013800587138005866" }, "geometry": { "type": "LineString", "coordinates": [ [ -84.44045361759683, 42.256685124748159 ], [ -84.439329809262333, 42.256686636980419 ] ] } },
{ "type": "Feature", "properties": { "road_id": "BLK-ROAD-58", "segment_id": "BLK-58-9142033800587138005799" }, "geometry": { "type": "LineString", "coordinates": [ [ -84.44045361759683, 42.256685124748159 ], [ -84.440463994975929, 42.25716439275395 ] ] } },
{ "type": "Feature", "properties": { "road_id": "BLK-ROAD-59", "segment_id": "BLK-59-8974083800585438005806" }, "geometry": { "type": "LineString", "coordinates": [ [ -84.442969726092471, 42.256716877068691 ], [ -84.442961081697476, 42.257161804865035 ] ] } },
{ "type": "Feature", "properties": { "road_id": "BLK-ROAD-60", "segment_id": "BLK-60-9145033800585938005854" }, "geometry": { "type": "LineString", "coordinates": [ [ -84.444146453381151, 42.256723181091161 ], [ -84.442969726092471, 42.256716877068691 ] ] } },
{ "type": "Feature", "properties": { "road_id": "BLK-ROAD-61", "segment_id": "BLK-61-9141093800585938005646" }, "geometry": { "type": "LineString", "coordinates": [ [ -84.444146453381151, 42.256723181091161 ], [ -84.444118826633783, 42.258999677236297 ] ] } },
{ "type": "Feature", "properties": { "road_id": "BLK-ROAD-62", "segment_id": "BLK-62-9145033800586438005859" }, "geometry": { "type": "LineString", "coordinates": [ [ -84.445352481902631, 42.256717835106301 ], [ -84.444146453381151, 42.256723181091161 ] ] } },
{ "type": "Feature", "properties": { "road_id": "BLK-ROAD-63", "segment_id": "BLK-63-9141073800586438005648" }, "geometry": { "type": "LineString", "coordinates": [ [ -84.445352481902631, 42.256717835106301 ], [ -84.44535987943037, 42.259018120692971 ] ] } },
{ "type": "Feature", "properties": { "road_id": "BLK-ROAD-64", "segment_id": "BLK-64-9145033800586738005864" }, "geometry": { "type": "LineString", "coordinates": [ [ -84.446587211537377, 42.256713584008779 ], [ -84.445352481902631, 42.256717835106301 ] ] } },
{ "type": "Feature", "properties": { "road_id": "BLK-ROAD-65", "segment_id": "BLK-65-9141053800586738005652" }, "geometry": { "type": "LineString", "coordinates": [ [ -84.446587211537377, 42.256713584008779 ], [ -84.446583122232596, 42.259023766348818 ] ] } },
{ "type": "Feature", "properties": { "road_id": "BLK-ROAD-66", "segment_id": "BLK-66-9145033800587038005867" }, "geometry": { "type": "LineString", "coordinates": [ [ -84.447745208628902, 42.256713235923606 ], [ -84.446587211537377, 42.256713584008779 ] ] } },
{ "type": "Feature", "properties": { "road_id": "BLK-ROAD-67", "segment_id": "BLK-67-33801123800587038005654" }, "geometry": { "type": "LineString", "coordinates": [ [ -84.447745208628902, 42.256713235923606 ], [ -84.447737763314535, 42.257235924258062 ], [ -84.447756000261677, 42.259025482102061 ] ] } },
{ "type": "Feature", "properties": { "road_id": "BLK-ROAD-68", "segment_id": "BLK-68-9142013800589838005802" }, "geometry": { "type": "LineString", "coordinates": [ [ -84.441224803423495, 42.256268991723289 ], [ -84.441206940906497, 42.257173483478986 ] ] } },
{ "type": "Feature", "properties": { "road_id": "BLK-ROAD-69", "segment_id": "BLK-69-9146023800590338005898" }, "geometry": { "type": "LineString", "coordinates": [ [ -84.442959253492873, 42.256256703952097 ], [ -84.441224803423495, 42.256268991723289 ] ] } },
{ "type": "Feature", "properties": { "road_id": "BLK-ROAD-70", "segment_id": "BLK-70-8974083800590338005854" }, "geometry": { "type": "LineString", "coordinates": [ [ -84.442959253492873, 42.256256703952097 ], [ -84.442969726092471, 42.256716877068691 ] ] } },
{ "type": "Feature", "properties": { "road_id": "BLK-ROAD-71", "segment_id": "BLK-71-9048093800594238018560" }, "geometry": { "type": "LineString", "coordinates": [ [ -84.483253349765022, 42.256447630478597 ], [ -84.483248559510756, 42.258129134359827 ], [ -84.483247652979784, 42.258447633575365 ] ] } },
{ "type": "Feature", "properties": { "road_id": "BLK-ROAD-72", "segment_id": "BLK-72-33800533800605483021582" }, "geometry": { "type": "LineString", "coordinates": [ [ -84.46749425272742, 42.255232502135257 ], [ -84.467505302876134, 42.255716757938664 ], [ -84.467517197968917, 42.25582361855048 ], [ -84.467568083794461, 42.255884174940981 ], [ -84.467738720389207, 42.256046591094112 ], [ -84.467864246081064, 42.256149984291774 ], [ -84.467992251288607, 42.256270714625948 ], [ -84.468111309704909, 42.256399974262337 ], [ -84.468215544192532, 42.256539843121281 ], [ -84.468398999730709, 42.256888452278076 ], [ -84.468441038793969, 42.256953922472029 ], [ -84.468497468924554, 42.257026079453325 ], [ -84.469154910467466, 42.257509356950699 ] ] } },
{ "type": "Feature", "properties": { "road_id": "BLK-ROAD-73", "segment_id": "BLK-73-9144093800608238005843" }, "geometry": { "type": "LineString", "coordinates": [ [ -84.433169516037424, 42.254711984524455 ], [ -84.433176599499973, 42.256689683339367 ] ] } },
{ "type": "Feature", "properties": { "road_id": "BLK-ROAD-74", "segment_id": "BLK-74-9018093800608338006082" }, "geometry": { "type": "LineString", "coordinates": [ [ -84.434517659831499, 42.254699215962596 ], [ -84.433169516037424, 42.254711984524455 ] ] } },
{ "type": "Feature", "properties": { "road_id": "BLK-ROAD-75", "segment_id": "BLK-75-9142083800608338005851" }, "geometry": { "type": "LineString", "coordinates": [ [ -84.434517659831499, 42.254699215962596 ], [ -84.434525566430565, 42.256691112133915 ] ] } },
{ "type": "Feature", "properties": { "road_id": "BLK-ROAD-76", "segment_id": "BLK-76-9018093800608938006083" }, "geometry": { "type": "LineString", "coordinates": [ [ -84.435911564253587, 42.25469084555769 ], [ -84.434517659831499, 42.254699215962596 ] ] } },
{ "type": "Feature", "properties": { "road_id": "BLK-ROAD-77", "segment_id": "BLK-77-9142073800608938005858" }, "geometry": { "type": "LineString", "coordinates": [ [ -84.435911564253587, 42.25469084555769 ], [ -84.435897365635583, 42.256706329441442 ] ] } },
{ "type": "Feature", "properties": { "road_id": "BLK-ROAD-78", "segment_id": "BLK-78-9018093800609338006089" }, "geometry": { "type": "LineString", "coordinates": [ [ -84.437072975965037, 42.254698436739709 ], [ -84.435911564253587, 42.25469084555769 ] ] } },
{ "type": "Feature", "properties": { "road_id": "BLK-ROAD-79", "segment_id": "BLK-79-9142063800609338005853" }, "geometry": { "type": "LineString", "coordinates": [ [ -84.437072975965037, 42.254698436739709 ], [ -84.437064709047391, 42.256697113894525 ] ] } },
{ "type": "Feature", "properties": { "road_id": "BLK-ROAD-80", "segment_id": "BLK-80-9018093800609838006093" }, "geometry": { "type": "LineString", "coordinates": [ [ -84.438260547681907, 42.254711231018156 ], [ -84.437072975965037, 42.254698436739709 ] ] } },
{ "type": "Feature", "properties": { "road_id": "BLK-ROAD-81", "segment_id": "BLK-81-9142053800609838005862" }, "geometry": { "type": "LineString", "coordinates": [ [ -84.438260547681907, 42.254711231018156 ], [ -84.438256143069637, 42.254719636491679 ], [ -84.438251520052304, 42.254728000161037 ], [ -84.438246818614161, 42.25473634831522 ], [ -84.438242178693784, 42.254744709044239 ], [ -84.438237736662174, 42.254753107685588 ], [ -84.438233633738932, 42.254761569644778 ], [ -84.438230008650635, 42.25477012299492 ], [ -84.438226971148183, 42.254778790897682 ], [ -84.438224220060789, 42.254787543897407 ], [ -84.43822165647785, 42.254796361687106 ], [ -84.438219318272843, 42.254805233089108 ], [ -84.438217238378954, 42.254814150459232 ], [ -84.43821545343468, 42.254823103503043 ], [ -84.438213997608244, 42.254832083693074 ], [ -84.43821290630315, 42.25484108161838 ], [ -84.438212213733578, 42.254850086950562 ], [ -84.438211951620929, 42.254859092028347 ], [ -84.438211862976473, 42.254868094140022 ], [ -84.438211775544147, 42.254877096268643 ], [ -84.43821168932385, 42.25488609841431 ], [ -84.438211604292746, 42.25489510147748 ], [ -84.438211521708752, 42.254904103674249 ], [ -84.438211439101792, 42.254913106771475 ], [ -84.438211358941956, 42.254922109002287 ], [ -84.438211279971284, 42.254931112150587 ], [ -84.438211202212699, 42.254940115315939 ], [ -84.4382111256662, 42.254949118498317 ], [ -84.438211051566824, 42.254958120814251 ], [ -84.438210977444442, 42.254967124030649 ], [ -84.438210905746303, 42.254976127281161 ], [ -84.438210834048135, 42.254985130531637 ], [ -84.438210764774183, 42.254994133816119 ], [ -84.438210696712318, 42.255003137117697 ], [ -84.438210629839574, 42.255012141336771 ], [ -84.438210562989767, 42.255021144655309 ], [ -84.43821049856416, 42.25503014800794 ], [ -84.438210435350641, 42.255039151377616 ], [ -84.438210373326271, 42.255048155664731 ], [ -84.438210312536938, 42.255057159068464 ], [ -84.43821025293677, 42.255066163389699 ], [ -84.438210194571582, 42.255075166827439 ], [ -84.438210138607744, 42.255084171199769 ], [ -84.438210082643863, 42.255093175572021 ], [ -84.438210027914977, 42.255102179060863 ], [ -84.438209974375241, 42.255111183467193 ], [ -84.438209920835519, 42.25512018787353 ], [ -84.438209869720055, 42.255129192313881 ], [ -84.438209819816606, 42.255138196771306 ], [ -84.438209771125315, 42.255147201245769 ], [ -84.43820972364604, 42.25515620573718 ], [ -84.438209676166807, 42.25516521022864 ], [ -84.438209631111803, 42.255174214754184 ], [ -84.438209586056757, 42.255183219279679 ], [ -84.438209542213841, 42.255192223822178 ], [ -84.438209499560074, 42.255201229282221 ], [ -84.438209458141316, 42.255210233858818 ], [ -84.438209417934672, 42.255219238452398 ], [ -84.438209378917222, 42.255228243963501 ], [ -84.43820934113478, 42.255237248591158 ], [ -84.438209303329401, 42.255246254119271 ], [ -84.438209266759074, 42.255255258763938 ], [ -84.438209231377897, 42.255264264326136 ], [ -84.438209197231771, 42.255273269004803 ], [ -84.438209164274824, 42.255282274601036 ], [ -84.438209131317862, 42.255291280197241 ], [ -84.438209099573001, 42.255300285810499 ], [ -84.438209069063149, 42.255309290540275 ], [ -84.438209039742517, 42.255318296187525 ], [ -84.438209011633987, 42.25532730185185 ], [ -84.438208983525456, 42.255336307516146 ], [ -84.438208956629012, 42.255345313197466 ], [ -84.438208930944654, 42.255354318895833 ], [ -84.438208905260325, 42.2553633245941 ], [ -84.438208880788082, 42.25537233030947 ], [ -84.438208857527982, 42.25538133604185 ], [ -84.438208834267883, 42.255390341774223 ], [ -84.43820881343197, 42.255399347540667 ], [ -84.438208791361006, 42.255408354190536 ], [ -84.438208771737223, 42.255417359973947 ], [ -84.438208752113454, 42.255426365757387 ], [ -84.438208733701771, 42.255435371557844 ], [ -84.438208715267152, 42.255444378258787 ], [ -84.438208699279684, 42.255453384093293 ], [ -84.438208682057152, 42.255462390811182 ], [ -84.438208667281842, 42.255471396662699 ], [ -84.438208651294374, 42.255480402497199 ], [ -84.4382086377082, 42.255489409266197 ], [ -84.438208624122012, 42.255498416035188 ], [ -84.438208611770918, 42.255507421920747 ], [ -84.43820859939683, 42.255516428706706 ], [ -84.438208588257808, 42.255525434609297 ], [ -84.438208577095892, 42.25553444141233 ], [ -84.438208567146049, 42.255543448232359 ], [ -84.43820855721917, 42.255552454151925 ], [ -84.438208548481455, 42.255561460988964 ], [ -84.43820854095587, 42.255570467843064 ], [ -84.438208533430299, 42.255579474697093 ], [ -84.438208525904713, 42.255588481551186 ], [ -84.438208519614165, 42.255597487521797 ], [ -84.438208513300722, 42.25560649439285 ], [ -84.438208508199367, 42.255615501280971 ], [ -84.438208503098025, 42.255624508169014 ], [ -84.43820849920877, 42.255633515074109 ], [ -84.438208495319572, 42.255642521979233 ], [ -84.43820849264246, 42.255651528901339 ], [ -84.438208489965348, 42.255660535823438 ], [ -84.43820848728825, 42.255669542745537 ], [ -84.438208485823239, 42.255678549684653 ], [ -84.438208484358285, 42.255687556623755 ], [ -84.438208484105431, 42.255696563579882 ], [ -84.438208483852563, 42.255705570535987 ], [ -84.438208484788916, 42.255714578409588 ], [ -84.438208484536077, 42.255723585365715 ], [ -84.438208485495323, 42.255732592338831 ], [ -84.43820848766677, 42.255741599328921 ], [ -84.438208488626003, 42.255750606302044 ], [ -84.438208491986614, 42.255759614209673 ], [ -84.438208494158005, 42.255768621199756 ], [ -84.438208497541567, 42.255777628206872 ], [ -84.438208500925114, 42.255786635213987 ], [ -84.43820850428574, 42.255795643121573 ], [ -84.438208507669231, 42.25580465012866 ], [ -84.438208512264964, 42.25581365715275 ], [ -84.438208516837676, 42.255822665077318 ], [ -84.438208522645482, 42.255831672118489 ], [ -84.438208527241159, 42.255840679142544 ], [ -84.438208533026042, 42.255849687084101 ], [ -84.438208538833877, 42.255858694125202 ], [ -84.438208544618746, 42.255867702066745 ], [ -84.438208551638695, 42.25587670912482 ], [ -84.438208558658658, 42.25588571618291 ], [ -84.438208564443556, 42.25589472412441 ], [ -84.438208571463548, 42.255903731182471 ], [ -84.43820857967269, 42.25591273915802 ], [ -84.438208586692667, 42.255921746216053 ], [ -84.438208593689694, 42.25593075417455 ], [ -84.438208601921801, 42.255939761249586 ], [ -84.438208610130971, 42.255948769225085 ], [ -84.43820861836312, 42.255957776300079 ], [ -84.438208626572305, 42.255966784275579 ], [ -84.43820863480444, 42.255975791350593 ], [ -84.438208643013638, 42.255984799326036 ], [ -84.438208651245802, 42.255993806400994 ], [ -84.438208660667129, 42.256002814393455 ], [ -84.438208668899264, 42.256011821468419 ], [ -84.438208678320635, 42.256020829460837 ], [ -84.438208686552812, 42.256029836535731 ], [ -84.438208695974154, 42.256038844528142 ], [ -84.438208705418489, 42.256047851620089 ], [ -84.438208714839831, 42.256056859612478 ], [ -84.438208723049087, 42.2560658675878 ], [ -84.43820873249345, 42.25607487467969 ], [ -84.438208741914806, 42.256083882672016 ], [ -84.438208750147027, 42.256092889746817 ], [ -84.438208759568454, 42.256101897739136 ], [ -84.438208769012761, 42.256110904830969 ], [ -84.438208777222059, 42.256119912806241 ], [ -84.438208786666394, 42.256128919898018 ], [ -84.438208796087849, 42.256137927890315 ], [ -84.438208804320084, 42.256146934965024 ], [ -84.438208812529396, 42.256155942940246 ], [ -84.43820882197376, 42.256164950032002 ], [ -84.438208830183086, 42.25617395800716 ], [ -84.438208838415363, 42.256182965081869 ], [ -84.43820884662469, 42.256191973057014 ], [ -84.438208854856967, 42.256200980131652 ], [ -84.438208863066322, 42.256209988106761 ], [ -84.438208871298599, 42.256218995181406 ], [ -84.438208878295811, 42.256228003139462 ], [ -84.438208885316016, 42.256237010197026 ], [ -84.438208893525385, 42.256246018172092 ], [ -84.438208900545547, 42.256255025229656 ], [ -84.438208907542787, 42.256264033187648 ], [ -84.438208913350849, 42.256273040228123 ], [ -84.438208920371068, 42.256282047285602 ], [ -84.438208926156207, 42.256291055226527 ], [ -84.43820893196424, 42.25630006226698 ], [ -84.438208937749394, 42.256309070207855 ], [ -84.438208942345383, 42.256318077231228 ], [ -84.438208948153445, 42.256327084271639 ], [ -84.438208952726498, 42.256336092195468 ], [ -84.438208957322445, 42.256345099218777 ], [ -84.438208960706305, 42.256354106225089 ], [ -84.43820896527933, 42.256363114148876 ], [ -84.43820896866319, 42.256372121155088 ], [ -84.438208970834893, 42.256381128144298 ], [ -84.438208974218767, 42.256390135150554 ], [ -84.438208976367548, 42.256399143040191 ], [ -84.438208978539279, 42.256408150029337 ], [ -84.438208979498881, 42.256417157001465 ], [ -84.438208980458455, 42.256426163973529 ], [ -84.4382089814181, 42.25643517094565 ], [ -84.438208981142651, 42.256444178801139 ], [ -84.438208980890124, 42.256453185756151 ], [ -84.438208980637654, 42.256462192711147 ], [ -84.438208979172998, 42.256471199649127 ], [ -84.438208977708356, 42.256480206587078 ], [ -84.4382089762437, 42.256489213524972 ], [ -84.43820897356693, 42.25649822044587 ], [ -84.438208969678058, 42.256507227349687 ], [ -84.438208967001287, 42.25651623427057 ], [ -84.438208961900287, 42.256525241157284 ], [ -84.438208958011359, 42.256534248061058 ], [ -84.438208952910344, 42.256543254947807 ], [ -84.438208946597157, 42.256552261817475 ], [ -84.438208940284028, 42.256561268687165 ], [ -84.438208932781677, 42.256570274639309 ], [ -84.438208925256404, 42.256579281491916 ], [ -84.438208917731075, 42.256588288344503 ], [ -84.438208908993673, 42.256597295180022 ], [ -84.438208899067035, 42.256606301098046 ], [ -84.438208889117476, 42.256615307916483 ], [ -84.438208877955745, 42.256624314717932 ], [ -84.438208866817035, 42.25663332061886 ], [ -84.438208854443175, 42.256642327403206 ], [ -84.438208842069372, 42.256651334187573 ], [ -84.438208828506333, 42.256660340054381 ], [ -84.438208814920344, 42.256669346821631 ], [ -84.438208790357336, 42.256683925696194 ] ] } },
{ "type": "Feature", "properties": { "road_id": "BLK-ROAD-82", "segment_id": "BLK-82-9002043802559738006098" }, "geometry": { "type": "LineString", "coordinates": [ [ -84.438937034993714, 42.254702891262717 ], [ -84.438260547681907, 42.254711231018156 ] ] } },
{ "type": "Feature", "properties": { "road_id": "BLK-ROAD-83", "segment_id": "BLK-83-9002043800610038025597" }, "geometry": { "type": "LineString", "coordinates": [ [ -84.439340127202826, 42.254702986763135 ], [ -84.438937034993714, 42.254702891262717 ] ] } },
{ "type": "Feature", "properties": { "road_id": "BLK-ROAD-84", "segment_id": "BLK-84-9142043800610038005866" }, "geometry": { "type": "LineString", "coordinates": [ [ -84.439340127202826, 42.254702986763135 ], [ -84.439329809262333, 42.256686636980419 ] ] } },
{ "type": "Feature", "properties": { "road_id": "BLK-ROAD-85", "segment_id": "BLK-85-9048093800608138005942" }, "geometry": { "type": "LineString", "coordinates": [ [ -84.483266596170026, 42.255306391251345 ], [ -84.483253349765022, 42.256447630478597 ] ] } },
{ "type": "Feature", "properties": { "road_id": "BLK-ROAD-86", "segment_id": "BLK-86-9002043800610438006100" }, "geometry": { "type": "LineString", "coordinates": [ [ -84.440478276407262, 42.254696551720123 ], [ -84.439340127202826, 42.254702986763135 ] ] } },
{ "type": "Feature", "properties": { "road_id": "BLK-ROAD-87", "segment_id": "BLK-87-9142033800610438005871" }, "geometry": { "type": "LineString", "coordinates": [ [ -84.440478276407262, 42.254696551720123 ], [ -84.44045361759683, 42.256685124748159 ] ] } },
{ "type": "Feature", "properties": { "road_id": "BLK-ROAD-88", "segment_id": "BLK-88-9002043800610638006104" }, "geometry": { "type": "LineString", "coordinates": [ [ -84.4409875150549, 42.254689483002643 ], [ -84.440478276407262, 42.254696551720123 ] ] } },
{ "type": "Feature", "properties": { "road_id": "BLK-ROAD-89", "segment_id": "BLK-89-9002043800610838006106" }, "geometry": { "type": "LineString", "coordinates": [ [ -84.441718824372543, 42.254698762469147 ], [ -84.4409875150549, 42.254689483002643 ] ] } },
{ "type": "Feature", "properties": { "road_id": "BLK-ROAD-90", "segment_id": "BLK-90-9142013800610838005898" }, "geometry": { "type": "LineString", "coordinates": [ [ -84.441718824372543, 42.254698762469147 ], [ -84.441699623876872, 42.25488520163627 ], [ -84.44165923621479, 42.255102615261556 ], [ -84.441570629345335, 42.255274030337915 ], [ -84.441256477164274, 42.255746588798658 ], [ -84.441227487935123, 42.25585840910027 ], [ -84.441227750092494, 42.256108977030166 ], [ -84.441224803423495, 42.256268991723289 ] ] } },
{ "type": "Feature", "properties": { "road_id": "BLK-ROAD-91", "segment_id": "BLK-91-9002043800610938006108" }, "geometry": { "type": "LineString", "coordinates": [ [ -84.441965827109939, 42.254690550033246 ], [ -84.441718824372543, 42.254698762469147 ] ] } },
{ "type": "Feature", "properties": { "road_id": "BLK-ROAD-92", "segment_id": "BLK-92-9002043800611138006109" }, "geometry": { "type": "LineString", "coordinates": [ [ -84.44296792163054, 42.254698633084686 ], [ -84.441965827109939, 42.254690550033246 ] ] } },
{ "type": "Feature", "properties": { "road_id": "BLK-ROAD-93", "segment_id": "BLK-93-8974083800611138005903" }, "geometry": { "type": "LineString", "coordinates": [ [ -84.44296792163054, 42.254698633084686 ], [ -84.442959253492873, 42.256256703952097 ] ] } },
{ "type": "Feature", "properties": { "road_id": "BLK-ROAD-94", "segment_id": "BLK-94-9002043800611538006111" }, "geometry": { "type": "LineString", "coordinates": [ [ -84.444155236547644, 42.254700073128696 ], [ -84.44296792163054, 42.254698633084686 ] ] } },
{ "type": "Feature", "properties": { "road_id": "BLK-ROAD-95", "segment_id": "BLK-95-9141093800611538005859" }, "geometry": { "type": "LineString", "coordinates": [ [ -84.444155236547644, 42.254700073128696 ], [ -84.444146453381151, 42.256723181091161 ] ] } },
{ "type": "Feature", "properties": { "road_id": "BLK-ROAD-96", "segment_id": "BLK-96-9002043800611738006115" }, "geometry": { "type": "LineString", "coordinates": [ [ -84.445278269753771, 42.254703866550621 ], [ -84.444155236547644, 42.254700073128696 ] ] } },
{ "type": "Feature", "properties": { "road_id": "BLK-ROAD-97", "segment_id": "BLK-97-9002043800611838006117" }, "geometry": { "type": "LineString", "coordinates": [ [ -84.445371628781601, 42.254703334658977 ], [ -84.445278269753771, 42.254703866550621 ] ] } },
{ "type": "Feature", "properties": { "road_id": "BLK-ROAD-98", "segment_id": "BLK-98-9141073800611838005864" }, "geometry": { "type": "LineString", "coordinates": [ [ -84.445371628781601, 42.254703334658977 ], [ -84.445352481902631, 42.256717835106301 ] ] } },
{ "type": "Feature", "properties": { "road_id": "BLK-ROAD-99", "segment_id": "BLK-99-8998023800611338005720" }, "geometry": { "type": "LineString", "coordinates": [ [ -84.476084146012525, 42.255128297692991 ], [ -84.476327247512728, 42.258882059248123 ] ] } },
{ "type": "Feature", "properties": { "road_id": "BLK-ROAD-100", "segment_id": "BLK-100-8998013800611438005722" }, "geometry": { "type": "LineString", "coordinates": [ [ -84.476455731942494, 42.255122842507951 ], [ -84.476673459203951, 42.25886585531196 ] ] } },
{ "type": "Feature", "properties": { "road_id": "BLK-ROAD-101", "segment_id": "BLK-101-9002043800612138006118" }, "geometry": { "type": "LineString", "coordinates": [ [ -84.446417731835581, 42.254702761385303 ], [ -84.445371628781601, 42.254703334658977 ] ] } },
{ "type": "Feature", "properties": { "road_id": "BLK-ROAD-102", "segment_id": "BLK-102-9002043800612238006121" }, "geometry": { "type": "LineString", "coordinates": [ [ -84.44658749302144, 42.25470311507987 ], [ -84.446417731835581, 42.254702761385303 ] ] } },
{ "type": "Feature", "properties": { "road_id": "BLK-ROAD-103", "segment_id": "BLK-103-9141053800612238005867" }, "geometry": { "type": "LineString", "coordinates": [ [ -84.44658749302144, 42.25470311507987 ], [ -84.446587211537377, 42.256713584008779 ] ] } },
{ "type": "Feature", "properties": { "road_id": "BLK-ROAD-104", "segment_id": "BLK-104-9002043800612538006122" }, "geometry": { "type": "LineString", "coordinates": [ [ -84.447595075515807, 42.254709602186473 ], [ -84.44658749302144, 42.25470311507987 ] ] } },
{ "type": "Feature", "properties": { "road_id": "BLK-ROAD-105", "segment_id": "BLK-105-33801123800612538005870" }, "geometry": { "type": "LineString", "coordinates": [ [ -84.447595075515807, 42.254709602186473 ], [ -84.447745208628902, 42.256713235923606 ] ] } },
{ "type": "Feature", "properties": { "road_id": "BLK-ROAD-106", "segment_id": "BLK-106-9002043801927838006125" }, "geometry": { "type": "LineString", "coordinates": [ [ -84.44814520975892, 42.254700868094773 ], [ -84.447595075515807, 42.254709602186473 ] ] } },
{ "type": "Feature", "properties": { "road_id": "BLK-ROAD-107", "segment_id": "BLK-107-9002043800612838019278" }, "geometry": { "type": "LineString", "coordinates": [ [ -84.448939894302129, 42.254689589638943 ], [ -84.44814520975892, 42.254700868094773 ] ] } },
{ "type": "Feature", "properties": { "road_id": "BLK-ROAD-108", "segment_id": "BLK-108-9141043800612838005423" }, "geometry": { "type": "LineString", "coordinates": [ [ -84.448939894302129, 42.254689589638943 ], [ -84.448906406459869, 42.258354304961991 ], [ -84.448876095076287, 42.261988151241134 ] ] } },
{ "type": "Feature", "properties": { "road_id": "BLK-ROAD-109", "segment_id": "BLK-109-9002043800613138006128" }, "geometry": { "type": "LineString", "coordinates": [ [ -84.449415114600626, 42.254681896756523 ], [ -84.448939894302129, 42.254689589638943 ] ] } },
{ "type": "Feature", "properties": { "road_id": "BLK-ROAD-110", "segment_id": "BLK-110-9002043800613338006131" }, "geometry": { "type": "LineString", "coordinates": [ [ -84.45171545025579, 42.254710481922707 ], [ -84.449415114600626, 42.254681896756523 ] ] } },
{ "type": "Feature", "properties": { "road_id": "BLK-ROAD-111", "segment_id": "BLK-111-9141033800613338005426" }, "geometry": { "type": "LineString", "coordinates": [ [ -84.45171545025579, 42.254710481922707 ], [ -84.451741212024828, 42.25837515037415 ], [ -84.451722653370538, 42.261989300941451 ] ] } },
{ "type": "Feature", "properties": { "road_id": "BLK-ROAD-112", "segment_id": "BLK-112-9002043800613738006133" }, "geometry": { "type": "LineString", "coordinates": [ [ -84.452584790129094, 42.254712368614719 ], [ -84.452101074050319, 42.254709309882081 ], [ -84.45171545025579, 42.254710481922707 ] ] } },
{ "type": "Feature", "properties": { "road_id": "BLK-ROAD-113", "segment_id": "BLK-113-9141023800613738005427" }, "geometry": { "type": "LineString", "coordinates": [ [ -84.452584790129094, 42.254712368614719 ], [ -84.452902738868417, 42.258366585572091 ], [ -84.452933356265774, 42.258915310145071 ], [ -84.452982541494336, 42.259676788685965 ], [ -84.452997349021146, 42.260606927265961 ], [ -84.453011185508871, 42.261282529027071 ], [ -84.45303397670456, 42.261772431320153 ], [ -84.453022155586396, 42.261838832672851 ], [ -84.45299039980253, 42.261891141106872 ], [ -84.452943496143149, 42.26194072628455 ], [ -84.452899792919908, 42.26197756941928 ] ] } },
{ "type": "Feature", "properties": { "road_id": "BLK-ROAD-114", "segment_id": "BLK-114-8998023800615938006113" }, "geometry": { "type": "LineString", "coordinates": [ [ -84.47606992495308, 42.254896370184724 ], [ -84.476084146012525, 42.255128297692991 ] ] } },
{ "type": "Feature", "properties": { "road_id": "BLK-ROAD-115", "segment_id": "BLK-115-8972073800616238006159" }, "geometry": { "type": "LineString", "coordinates": [ [ -84.476447974335969, 42.254877520928801 ], [ -84.47606992495308, 42.254896370184724 ] ] } },
{ "type": "Feature", "properties": { "road_id": "BLK-ROAD-116", "segment_id": "BLK-116-8998013800616238006114" }, "geometry": { "type": "LineString", "coordinates": [ [ -84.476447974335969, 42.254877520928801 ], [ -84.476449853959494, 42.255092401127655 ], [ -84.476455731942494, 42.255122842507951 ] ] } },
{ "type": "Feature", "properties": { "road_id": "BLK-ROAD-117", "segment_id": "BLK-117-9048093800614438006081" }, "geometry": { "type": "LineString", "coordinates": [ [ -84.483268643883832, 42.254959916750835 ], [ -84.483266596170026, 42.255306391251345 ] ] } },
{ "type": "Feature", "properties": { "road_id": "BLK-ROAD-118", "segment_id": "BLK-118-8972073802167338006156" }, "geometry": { "type": "LineString", "coordinates": [ [ -84.466294852445444, 42.254713538149382 ], [ -84.465684442793247, 42.254707821101469 ] ] } },
{ "type": "Feature", "properties": { "road_id": "BLK-ROAD-119", "segment_id": "BLK-119-8972073800615838021673" }, "geometry": { "type": "LineString", "coordinates": [ [ -84.466747949563128, 42.254717780604615 ], [ -84.466294852445444, 42.254713538149382 ] ] } },
{ "type": "Feature", "properties": { "road_id": "BLK-ROAD-120", "segment_id": "BLK-120-8972073800615938006167" }, "geometry": { "type": "LineString", "coordinates": [ [ -84.47606992495308, 42.254896370184724 ], [ -84.474421369987724, 42.254880165394084 ], [ -84.474184480135946, 42.254865110633204 ], [ -84.473688016148898, 42.254811614340163 ] ] } },
{ "type": "Feature", "properties": { "road_id": "BLK-ROAD-121", "segment_id": "BLK-121-8972073800616138006158" }, "geometry": { "type": "LineString", "coordinates": [ [ -84.467518301779705, 42.254719493219277 ], [ -84.466747949563128, 42.254717780604615 ] ] } },
{ "type": "Feature", "properties": { "road_id": "BLK-ROAD-122", "segment_id": "BLK-122-33800533800616138006054" }, "geometry": { "type": "LineString", "coordinates": [ [ -84.467518301779705, 42.254719493219277 ], [ -84.46749425272742, 42.255232502135257 ] ] } },
{ "type": "Feature", "properties": { "road_id": "BLK-ROAD-123", "segment_id": "BLK-123-8972073800616738006164" }, "geometry": { "type": "LineString", "coordinates": [ [ -84.473688016148898, 42.254811614340163 ], [ -84.473511190073225, 42.25478975612549 ] ] } },
{ "type": "Feature", "properties": { "road_id": "BLK-ROAD-124", "segment_id": "BLK-124-8972073800616338006161" }, "geometry": { "type": "LineString", "coordinates": [ [ -84.468774187434519, 42.25471330947277 ], [ -84.467518301779705, 42.254719493219277 ] ] } },
{ "type": "Feature", "properties": { "road_id": "BLK-ROAD-125", "segment_id": "BLK-125-8972073800616538006163" }, "geometry": { "type": "LineString", "coordinates": [ [ -84.471201808327891, 42.254728714662335 ], [ -84.468774187434519, 42.25471330947277 ] ] } },
{ "type": "Feature", "properties": { "road_id": "BLK-ROAD-126", "segment_id": "BLK-126-8972073800617038006162" }, "geometry": { "type": "LineString", "coordinates": [ [ -84.478857508127732, 42.254826454382723 ], [ -84.476447974335969, 42.254877520928801 ] ] } },
{ "type": "Feature", "properties": { "road_id": "BLK-ROAD-127", "segment_id": "BLK-127-8972073800617238006170" }, "geometry": { "type": "LineString", "coordinates": [ [ -84.479077444877788, 42.254831361351023 ], [ -84.478857508127732, 42.254826454382723 ] ] } },
{ "type": "Feature", "properties": { "road_id": "BLK-ROAD-128", "segment_id": "BLK-128-8972073800616438006165" }, "geometry": { "type": "LineString", "coordinates": [ [ -84.473511190073225, 42.25478975612549 ], [ -84.472151252352162, 42.254733825851417 ], [ -84.471201808327891, 42.254728714662335 ] ] } },
{ "type": "Feature", "properties": { "road_id": "BLK-ROAD-129", "segment_id": "BLK-129-8972073800615638006174" }, "geometry": { "type": "LineString", "coordinates": [ [ -84.465684442793247, 42.254707821101469 ], [ -84.464627248203584, 42.254699082993369 ], [ -84.463984917047213, 42.254653091096245 ], [ -84.463754907028303, 42.254615509304884 ] ] } },
{ "type": "Feature", "properties": { "road_id": "BLK-ROAD-130", "segment_id": "BLK-130-8972073800617538006172" }, "geometry": { "type": "LineString", "coordinates": [ [ -84.480350469421339, 42.254820146600622 ], [ -84.479077444877788, 42.254831361351023 ] ] } },
{ "type": "Feature", "properties": { "road_id": "BLK-ROAD-131", "segment_id": "BLK-131-9142063800617338006093" }, "geometry": { "type": "LineString", "coordinates": [ [ -84.437085569437443, 42.254215025778059 ], [ -84.437072975965037, 42.254698436739709 ] ] } },
{ "type": "Feature", "properties": { "road_id": "BLK-ROAD-132", "segment_id": "BLK-132-9002043800609838006173" }, "geometry": { "type": "LineString", "coordinates": [ [ -84.438260547681907, 42.254711231018156 ], [ -84.438260279257861, 42.254702156328037 ], [ -84.438260420190005, 42.254692957679055 ], [ -84.438260818939256, 42.254683681583543 ], [ -84.43826132398965, 42.254674373653202 ], [ -84.438261781378174, 42.254665080366259 ], [ -84.438262038399785, 42.254655846416888 ], [ -84.438261944704962, 42.254646719234934 ], [ -84.438261345164733, 42.254637743480544 ], [ -84.438260089452669, 42.254628965683054 ], [ -84.438258023629132, 42.25462043142003 ], [ -84.438254996155692, 42.254612187203755 ], [ -84.438250727664325, 42.254604109302399 ], [ -84.438245080120936, 42.254596094887376 ], [ -84.438238203356917, 42.25458830730539 ], [ -84.438230244710525, 42.254580912570582 ], [ -84.438221353943888, 42.254574076731068 ], [ -84.438211679652838, 42.254567964017106 ], [ -84.438201369175019, 42.254562740442744 ], [ -84.438190573667612, 42.254558564869676 ], [ -84.438179614745351, 42.254554854506289 ], [ -84.438168645852386, 42.254551154811132 ], [ -84.438157668246632, 42.254547464000268 ], [ -84.438146680716045, 42.254543782056665 ], [ -84.438135685661777, 42.254540109914821 ], [ -84.438124681917728, 42.254536445756877 ], [ -84.438113669437982, 42.254532791383646 ], [ -84.438102649480413, 42.254529145011318 ], [ -84.438091620833049, 42.254525506622819 ], [ -84.438080584685011, 42.25452187713563 ], [ -84.438069539847078, 42.254518255632277 ], [ -84.438058487531421, 42.254514642129749 ], [ -84.43804742773797, 42.254511036628124 ], [ -84.438036360466768, 42.254507439127345 ], [ -84.438025286952836, 42.254503848743958 ], [ -84.43801420474901, 42.254500266344429 ], [ -84.438003116325419, 42.254496690161801 ], [ -84.437992020424034, 42.254493121980119 ], [ -84.437980918279933, 42.254489560915751 ], [ -84.437969809915941, 42.254486006068447 ], [ -84.437958695309305, 42.254482458338501 ], [ -84.437947573270691, 42.254478916808466 ], [ -84.437936446201462, 42.254475382412899 ], [ -84.43792531172322, 42.254471853316765 ], [ -84.437914172214363, 42.25446833135512 ], [ -84.437903027720694, 42.25446481472698 ], [ -84.437891877030125, 42.254461303415304 ], [ -84.437880720119722, 42.254457798320608 ], [ -84.437869558201641, 42.254454299459859 ], [ -84.437858391321669, 42.254450805032185 ], [ -84.437847220669028, 42.254447315955083 ], [ -84.437836043819431, 42.254443832194433 ], [ -84.437824861985078, 42.254440353767336 ], [ -84.437813675188892, 42.254436879773266 ], [ -84.437802484642873, 42.254433410229296 ], [ -84.43779129034715, 42.254429945135399 ], [ -84.437780091089536, 42.254426484474571 ], [ -84.437768888082132, 42.254423028263808 ], [ -84.437757681347932, 42.254419575602647 ], [ -84.437746469651813, 42.254416127374576 ], [ -84.437735255441012, 42.254412682713166 ], [ -84.437724037480407, 42.254409242501822 ], [ -84.437712817027958, 42.254405804956669 ], [ -84.437701591636653, 42.254402370944121 ], [ -84.43769036496559, 42.254398939614788 ], [ -84.437679134567702, 42.254395511835121 ], [ -84.437667900465911, 42.254392086704549 ], [ -84.437656665084418, 42.25438866425722 ], [ -84.437645425976072, 42.254385245359508 ], [ -84.437634185610975, 42.25438182824459 ], [ -84.437622942776997, 42.254378412895406 ], [ -84.437611697451203, 42.254375000212413 ], [ -84.437600450868672, 42.254371589312193 ], [ -84.437589201794282, 42.254368181078171 ], [ -84.437577951486034, 42.254364773726444 ], [ -84.437566698709006, 42.254361368140486 ], [ -84.437555445887284, 42.254357964354305 ], [ -84.437544190619604, 42.254354561433395 ], [ -84.437532935307246, 42.254351160312282 ], [ -84.437521678784009, 42.254347759173044 ], [ -84.437510421004035, 42.254344359816564 ], [ -84.437499163225212, 42.254340960458975 ], [ -84.437487904212574, 42.254337561983739 ], [ -84.437476645178222, 42.254334164407815 ], [ -84.437465386168, 42.25433076593027 ], [ -84.437454125923935, 42.254327368335098 ], [ -84.437442866893193, 42.254323970755856 ], [ -84.437431606651558, 42.254320573158431 ], [ -84.437420347646167, 42.25431717467653 ], [ -84.437409089854057, 42.254313776210516 ], [ -84.437397832086162, 42.25431037684293 ], [ -84.437386574342355, 42.25430697657378 ], [ -84.437375317834835, 42.254303575420124 ], [ -84.437364062540581, 42.254300174282392 ], [ -84.437352808528487, 42.254296770459213 ], [ -84.437341555729745, 42.254293366651979 ], [ -84.437330304213091, 42.254289960159269 ], [ -84.437319053932697, 42.254286552782041 ], [ -84.437307806146521, 42.254283142736426 ], [ -84.43729655959666, 42.254279731806292 ], [ -84.43728531554099, 42.254276318207786 ], [ -84.437274072744543, 42.254272902824248 ], [ -84.437262832442329, 42.254269484772337 ], [ -84.437251594634347, 42.254266064051997 ], [ -84.437240360509762, 42.254262641580794 ], [ -84.437229127690287, 42.254259215523668 ], [ -84.43721789860011, 42.254255785914765 ], [ -84.437206671981201, 42.254252354537897 ], [ -84.437195447902468, 42.254248918691708 ], [ -84.437184228742126, 42.254245480211246 ], [ -84.437173010886951, 42.254242038144888 ], [ -84.437161797973133, 42.254238592543764 ], [ -84.437150588811605, 42.254235142490352 ], [ -84.437139383379304, 42.25423168888512 ], [ -84.437128181676343, 42.254228231728135 ], [ -84.437116983748567, 42.254224769218389 ], [ -84.437105789550131, 42.254221303156889 ], [ -84.437085569437443, 42.254215025778059 ] ] } },
{ "type": "Feature", "properties": { "road_id": "BLK-ROAD-133", "segment_id": "BLK-133-33817223802559738006173" }, "geometry": { "type": "LineString", "coordinates": [ [ -84.438937034993714, 42.254702891262717 ], [ -84.437085569437443, 42.254215025778059 ] ] } },
{ "type": "Feature", "properties": { "road_id": "BLK-ROAD-134", "segment_id": "BLK-134-9002043800618238006137" }, "geometry": { "type": "LineString", "coordinates": [ [ -84.461870854165582, 42.254486428733053 ], [ -84.461791209150306, 42.25458408265677 ], [ -84.461363918859774, 42.254702132205068 ], [ -84.461164940474887, 42.25471016013357 ], [ -84.460846852514337, 42.254720671501403 ], [ -84.452584790129094, 42.254712368614719 ] ] } },
{ "type": "Feature", "properties": { "road_id": "BLK-ROAD-135", "segment_id": "BLK-135-8972073800618038006175" }, "geometry": { "type": "LineString", "coordinates": [ [ -84.483279128181564, 42.254730199029346 ], [ -84.481110416096627, 42.254811097088755 ], [ -84.480350469421339, 42.254820146600622 ] ] } },
{ "type": "Feature", "properties": { "road_id": "BLK-ROAD-136", "segment_id": "BLK-136-9048093800618038006144" }, "geometry": { "type": "LineString", "coordinates": [ [ -84.483279128181564, 42.254730199029346 ], [ -84.483268643883832, 42.254959916750835 ] ] } },
{ "type": "Feature", "properties": { "road_id": "BLK-ROAD-137", "segment_id": "BLK-137-9002043800620438006182" }, "geometry": { "type": "LineString", "coordinates": [ [ -84.462061956799815, 42.254237081185011 ], [ -84.461870854165582, 42.254486428733053 ] ] } },
{ "type": "Feature", "properties": { "road_id": "BLK-ROAD-138", "segment_id": "BLK-138-8972073800617438006204" }, "geometry": { "type": "LineString", "coordinates": [ [ -84.463754907028303, 42.254615509304884 ], [ -84.463430181720994, 42.254547140216083 ], [ -84.462061956799815, 42.254237081185011 ] ] } },
{ "type": "Feature", "properties": { "road_id": "BLK-ROAD-139", "segment_id": "BLK-139-33808113800620838006156" }, "geometry": { "type": "LineString", "coordinates": [ [ -84.465673146420826, 42.254263747930217 ], [ -84.465684442793247, 42.254707821101469 ] ] } },
{ "type": "Feature", "properties": { "road_id": "BLK-ROAD-140", "segment_id": "BLK-140-33808123802167438006208" }, "geometry": { "type": "LineString", "coordinates": [ [ -84.466299793107538, 42.254266620423365 ], [ -84.465673146420826, 42.254263747930217 ] ] } },
{ "type": "Feature", "properties": { "road_id": "BLK-ROAD-141", "segment_id": "BLK-141-33816693802167338021674" }, "geometry": { "type": "LineString", "coordinates": [ [ -84.466294852445444, 42.254713538149382 ], [ -84.466299793107538, 42.254266620423365 ] ] } },
{ "type": "Feature", "properties": { "road_id": "BLK-ROAD-142", "segment_id": "BLK-142-33808123800620638021674" }, "geometry": { "type": "LineString", "coordinates": [ [ -84.466748878542703, 42.25426867806933 ], [ -84.466299793107538, 42.254266620423365 ] ] } },
{ "type": "Feature", "properties": { "road_id": "BLK-ROAD-143", "segment_id": "BLK-143-33808113800615838006206" }, "geometry": { "type": "LineString", "coordinates": [ [ -84.466747949563128, 42.254717780604615 ], [ -84.466748878542703, 42.25426867806933 ] ] } },
{ "type": "Feature", "properties": { "road_id": "BLK-ROAD-144", "segment_id": "BLK-144-9142073800619938006089" }, "geometry": { "type": "LineString", "coordinates": [ [ -84.435876847636038, 42.253837100966052 ], [ -84.435911564253587, 42.25469084555769 ] ] } },
{ "type": "Feature", "properties": { "road_id": "BLK-ROAD-145", "segment_id": "BLK-145-9002043800617338006199" }, "geometry": { "type": "LineString", "coordinates": [ [ -84.437085569437443, 42.254215025778059 ], [ -84.435876847636038, 42.253837100966052 ] ] } },
{ "type": "Feature", "properties": { "road_id": "BLK-ROAD-146", "segment_id": "BLK-146-33808113802167638006208" }, "geometry": { "type": "LineString", "coordinates": [ [ -84.465667846098285, 42.254021717916082 ], [ -84.465673146420826, 42.254263747930217 ] ] } },
{ "type": "Feature", "properties": { "road_id": "BLK-ROAD-147", "segment_id": "BLK-147-33816703802167538021676" }, "geometry": { "type": "LineString", "coordinates": [ [ -84.466763459943039, 42.254010097039021 ], [ -84.465667846098285, 42.254021717916082 ] ] } },
{ "type": "Feature", "properties": { "road_id": "BLK-ROAD-148", "segment_id": "BLK-148-33808113800620638021675" }, "geometry": { "type": "LineString", "coordinates": [ [ -84.466748878542703, 42.25426867806933 ], [ -84.466763459943039, 42.254010097039021 ] ] } },
{ "type": "Feature", "properties": { "road_id": "BLK-ROAD-149", "segment_id": "BLK-149-9002043800619938025619" }, "geometry": { "type": "LineString", "coordinates": [ [ -84.435876847636038, 42.253837100966052 ], [ -84.434896820333478, 42.253553394200082 ] ] } },
{ "type": "Feature", "properties": { "road_id": "BLK-ROAD-150", "segment_id": "BLK-150-9142083800624038006083" }, "geometry": { "type": "LineString", "coordinates": [ [ -84.434511620708733, 42.253441880697558 ], [ -84.434517659831499, 42.254699215962596 ] ] } },
{ "type": "Feature", "properties": { "road_id": "BLK-ROAD-151", "segment_id": "BLK-151-9002043802561938006240" }, "geometry": { "type": "LineString", "coordinates": [ [ -84.434896820333478, 42.253553394200082 ], [ -84.434511620708733, 42.253441880697558 ] ] } },
{ "type": "Feature", "properties": { "road_id": "BLK-ROAD-152", "segment_id": "BLK-152-33808113802167538006272" }, "geometry": { "type": "LineString", "coordinates": [ [ -84.466763459943039, 42.254010097039021 ], [ -84.466777202322646, 42.253766388000777 ] ] } },
{ "type": "Feature", "properties": { "road_id": "BLK-ROAD-153", "segment_id": "BLK-153-33808113800627538021676" }, "geometry": { "type": "LineString", "coordinates": [ [ -84.465775104168983, 42.253705440734301 ], [ -84.465720372364473, 42.253728221865657 ], [ -84.465693149348425, 42.253757368775332 ], [ -84.465674426771741, 42.253799753904737 ], [ -84.465664202193224, 42.253855378124676 ], [ -84.465667846098285, 42.254021717916082 ] ] } },
{ "type": "Feature", "properties": { "road_id": "BLK-ROAD-154", "segment_id": "BLK-154-33808113800627238006275" }, "geometry": { "type": "LineString", "coordinates": [ [ -84.466777202322646, 42.253766388000777 ], [ -84.466764486951021, 42.25373444370944 ], [ -84.466736246866219, 42.25371601202562 ], [ -84.466687980234354, 42.253703864164834 ], [ -84.465775104168983, 42.253705440734301 ] ] } },
{ "type": "Feature", "properties": { "road_id": "BLK-ROAD-155", "segment_id": "BLK-155-17921183800617438006306" }, "geometry": { "type": "LineString", "coordinates": [ [ -84.463754907028303, 42.254615509304884 ], [ -84.463793505288706, 42.253624332451331 ] ] } },
{ "type": "Feature", "properties": { "road_id": "BLK-ROAD-156", "segment_id": "BLK-156-8998013800628538006162" }, "geometry": { "type": "LineString", "coordinates": [ [ -84.476386858492205, 42.253724023431324 ], [ -84.476447974335969, 42.254877520928801 ] ] } },
{ "type": "Feature", "properties": { "road_id": "BLK-ROAD-157", "segment_id": "BLK-157-8998023800627838006159" }, "geometry": { "type": "LineString", "coordinates": [ [ -84.476014061551467, 42.253593354085162 ], [ -84.47606992495308, 42.254896370184724 ] ] } },
{ "type": "Feature", "properties": { "road_id": "BLK-ROAD-158", "segment_id": "BLK-158-8972073800620438006299" }, "geometry": { "type": "LineString", "coordinates": [ [ -84.462061956799815, 42.254237081185011 ], [ -84.457817499736009, 42.253310585458792 ] ] } },
{ "type": "Feature", "properties": { "road_id": "BLK-ROAD-159", "segment_id": "BLK-159-9141183800611738006332" }, "geometry": { "type": "LineString", "coordinates": [ [ -84.445278269753771, 42.254703866550621 ], [ -84.445271514739275, 42.252968739847795 ] ] } },
{ "type": "Feature", "properties": { "road_id": "BLK-ROAD-160", "segment_id": "BLK-160-9145023800633538006332" }, "geometry": { "type": "LineString", "coordinates": [ [ -84.446429392063351, 42.252968417953497 ], [ -84.445399538491685, 42.25296311008546 ], [ -84.445271514739275, 42.252968739847795 ] ] } },
{ "type": "Feature", "properties": { "road_id": "BLK-ROAD-161", "segment_id": "BLK-161-9141063800633538006121" }, "geometry": { "type": "LineString", "coordinates": [ [ -84.446429392063351, 42.252968417953497 ], [ -84.446417731835581, 42.254702761385303 ] ] } },
{ "type": "Feature", "properties": { "road_id": "BLK-ROAD-162", "segment_id": "BLK-162-9145023800633938006335" }, "geometry": { "type": "LineString", "coordinates": [ [ -84.447601585778116, 42.252953317917004 ], [ -84.447334481250678, 42.252957044823489 ], [ -84.446429392063351, 42.252968417953497 ] ] } },
{ "type": "Feature", "properties": { "road_id": "BLK-ROAD-163", "segment_id": "BLK-163-33801123800633938006125" }, "geometry": { "type": "LineString", "coordinates": [ [ -84.447601585778116, 42.252953317917004 ], [ -84.447595075515807, 42.254709602186473 ] ] } },
{ "type": "Feature", "properties": { "road_id": "BLK-ROAD-164", "segment_id": "BLK-164-33808093800613138006370" }, "geometry": { "type": "LineString", "coordinates": [ [ -84.449415114600626, 42.254681896756523 ], [ -84.449410438760424, 42.252812722078737 ] ] } },
{ "type": "Feature", "properties": { "road_id": "BLK-ROAD-165", "segment_id": "BLK-165-8974033800616738006278" }, "geometry": { "type": "LineString", "coordinates": [ [ -84.473688016148898, 42.254811614340163 ], [ -84.473670232778375, 42.254399894285484 ], [ -84.473646884567799, 42.254150731441143 ], [ -84.473634539108446, 42.253855366691219 ], [ -84.473621100221692, 42.253603899845167 ], [ -84.473642678248197, 42.253396828283535 ], [ -84.473702919718193, 42.253219563576025 ], [ -84.473801277683492, 42.253094054626793 ], [ -84.473946079407341, 42.252949667759147 ], [ -84.474143100749245, 42.252818195899017 ], [ -84.47435525990177, 42.252738164423 ], [ -84.474579759575619, 42.252690016737418 ], [ -84.474816601248889, 42.25267375458764 ], [ -84.475085237464114, 42.252699401428785 ], [ -84.475339408434905, 42.252778520945405 ], [ -84.475559356664363, 42.252913281220707 ], [ -84.475716874091447, 42.253049624066414 ], [ -84.475835059081675, 42.253182986463266 ], [ -84.476014061551467, 42.253593354085162 ] ] } },
{ "type": "Feature", "properties": { "road_id": "BLK-ROAD-166", "segment_id": "BLK-166-8974023800628538006170" }, "geometry": { "type": "LineString", "coordinates": [ [ -84.476386858492205, 42.253724023431324 ], [ -84.476464932777645, 42.253386793382433 ], [ -84.476525800989592, 42.253229644881962 ], [ -84.476644521407678, 42.253036615969791 ], [ -84.476804578790677, 42.252861080658441 ], [ -84.477043791135486, 42.252709200089129 ], [ -84.477330738441651, 42.252622860442855 ], [ -84.477699937566214, 42.252588428522728 ], [ -84.478002431597872, 42.252640535565426 ], [ -84.478291856447299, 42.252760169598091 ], [ -84.478527297361012, 42.252912916904705 ], [ -84.478689983258704, 42.253090056860422 ], [ -84.478791442494455, 42.253286105291835 ], [ -84.478837235272863, 42.253582951668207 ], [ -84.478859341782666, 42.25391614768396 ], [ -84.478882864142832, 42.254345282344325 ], [ -84.478857508127732, 42.254826454382723 ] ] } },
{ "type": "Feature", "properties": { "road_id": "BLK-ROAD-167", "segment_id": "BLK-167-9141063801795738006335" }, "geometry": { "type": "LineString", "coordinates": [ [ -84.446426390123477, 42.252105916954527 ], [ -84.446429392063351, 42.252968417953497 ] ] } },
{ "type": "Feature", "properties": { "road_id": "BLK-ROAD-168", "segment_id": "BLK-168-8981193800617538006445" }, "geometry": { "type": "LineString", "coordinates": [ [ -84.480350469421339, 42.254820146600622 ], [ -84.48034967679439, 42.254683115873668 ], [ -84.480304490214962, 42.252499463129887 ] ] } },
{ "type": "Feature", "properties": { "road_id": "BLK-ROAD-169", "segment_id": "BLK-169-9141183800633238006486" }, "geometry": { "type": "LineString", "coordinates": [ [ -84.445271514739275, 42.252968739847795 ], [ -84.445298470743722, 42.25182968900414 ] ] } },
{ "type": "Feature", "properties": { "road_id": "BLK-ROAD-170", "segment_id": "BLK-170-8974083800648338006111" }, "geometry": { "type": "LineString", "coordinates": [ [ -84.442962178973573, 42.251784628157203 ], [ -84.442951518629783, 42.25293860203552 ], [ -84.44296792163054, 42.254698633084686 ] ] } },
{ "type": "Feature", "properties": { "road_id": "BLK-ROAD-171", "segment_id": "BLK-171-33808103800648638006483" }, "geometry": { "type": "LineString", "coordinates": [ [ -84.445298470743722, 42.25182968900414 ], [ -84.442962178973573, 42.251784628157203 ] ] } },
{ "type": "Feature", "properties": { "road_id": "BLK-ROAD-172", "segment_id": "BLK-172-33801123800646538006339" }, "geometry": { "type": "LineString", "coordinates": [ [ -84.447609989663619, 42.251839664028999 ], [ -84.447601585778116, 42.252953317917004 ] ] } },
{ "type": "Feature", "properties": { "road_id": "BLK-ROAD-173", "segment_id": "BLK-173-8972073800629938006477" }, "geometry": { "type": "LineString", "coordinates": [ [ -84.457817499736009, 42.253310585458792 ], [ -84.455052499568282, 42.252741506579262 ], [ -84.454311932772072, 42.252588750462614 ], [ -84.452219493729999, 42.252167170671235 ], [ -84.450011121197576, 42.251705139413694 ] ] } },
{ "type": "Feature", "properties": { "road_id": "BLK-ROAD-174", "segment_id": "BLK-174-9141063800649538017957" }, "geometry": { "type": "LineString", "coordinates": [ [ -84.446424574186381, 42.251583843525836 ], [ -84.446426390123477, 42.252105916954527 ] ] } },
{ "type": "Feature", "properties": { "road_id": "BLK-ROAD-175", "segment_id": "BLK-175-33801123800649038006465" }, "geometry": { "type": "LineString", "coordinates": [ [ -84.447635632392235, 42.251582336780835 ], [ -84.447611169654962, 42.251827827097088 ], [ -84.447609989663619, 42.251839664028999 ] ] } },
{ "type": "Feature", "properties": { "road_id": "BLK-ROAD-176", "segment_id": "BLK-176-8972073800647738006503" }, "geometry": { "type": "LineString", "coordinates": [ [ -84.450011121197576, 42.251705139413694 ], [ -84.448937267603441, 42.251496686911203 ] ] } },
{ "type": "Feature", "properties": { "road_id": "BLK-ROAD-177", "segment_id": "BLK-177-9141183800648638006517" }, "geometry": { "type": "LineString", "coordinates": [ [ -84.445298470743722, 42.25182968900414 ], [ -84.445297441253658, 42.251431885200695 ] ] } },
{ "type": "Feature", "properties": { "road_id": "BLK-ROAD-178", "segment_id": "BLK-178-9049083800650638006445" }, "geometry": { "type": "LineString", "coordinates": [ [ -84.482683887430468, 42.251904717662619 ], [ -84.481984139115056, 42.252220025000291 ], [ -84.481566219125298, 42.252396863774479 ], [ -84.481378724131943, 42.252465539390435 ], [ -84.481186340915158, 42.252489623311533 ], [ -84.480304490214962, 42.252499463129887 ] ] } },
{ "type": "Feature", "properties": { "road_id": "BLK-ROAD-179", "segment_id": "BLK-179-9049083800651538006506" }, "geometry": { "type": "LineString", "coordinates": [ [ -84.483302567862182, 42.251882686629578 ], [ -84.482683887430468, 42.251904717662619 ] ] } },
{ "type": "Feature", "properties": { "road_id": "BLK-ROAD-180", "segment_id": "BLK-180-8981193800644583026696" }, "geometry": { "type": "LineString", "coordinates": [ [ -84.480304490214962, 42.252499463129887 ], [ -84.480291733975136, 42.252312633929598 ], [ -84.480248110225887, 42.252138385729616 ], [ -84.480155893368149, 42.251990189226184 ], [ -84.479899598160571, 42.251813670993307 ] ] } },
{ "type": "Feature", "properties": { "road_id": "BLK-ROAD-181", "segment_id": "BLK-181-9142123800610638006524" }, "geometry": { "type": "LineString", "coordinates": [ [ -84.4409875150549, 42.254689483002643 ], [ -84.440997439912664, 42.251224916214404 ], [ -84.440997585971488, 42.251153794896581 ] ] } },
{ "type": "Feature", "properties": { "road_id": "BLK-ROAD-182", "segment_id": "BLK-182-9141203800610938006542" }, "geometry": { "type": "LineString", "coordinates": [ [ -84.441965827109939, 42.254690550033246 ], [ -84.441952709362141, 42.251154868038299 ] ] } },
{ "type": "Feature", "properties": { "road_id": "BLK-ROAD-183", "segment_id": "BLK-183-8974083800653638006483" }, "geometry": { "type": "LineString", "coordinates": [ [ -84.442949536054272, 42.25116035063175 ], [ -84.442948760411412, 42.25119647928031 ], [ -84.442962178973573, 42.251784628157203 ] ] } },
{ "type": "Feature", "properties": { "road_id": "BLK-ROAD-184", "segment_id": "BLK-184-33801123800653138006490" }, "geometry": { "type": "LineString", "coordinates": [ [ -84.447680776863066, 42.251221697248496 ], [ -84.447635632392235, 42.251582336780835 ] ] } },
{ "type": "Feature", "properties": { "road_id": "BLK-ROAD-185", "segment_id": "BLK-185-8972073800650338006531" }, "geometry": { "type": "LineString", "coordinates": [ [ -84.448937267603441, 42.251496686911203 ], [ -84.447919091946275, 42.251270100209403 ], [ -84.447680776863066, 42.251221697248496 ] ] } },
{ "type": "Feature", "properties": { "road_id": "BLK-ROAD-186", "segment_id": "BLK-186-8972073800653138019277" }, "geometry": { "type": "LineString", "coordinates": [ [ -84.447680776863066, 42.251221697248496 ], [ -84.446731549689929, 42.251033419892636 ], [ -84.446577735687939, 42.251002555409734 ] ] } },
{ "type": "Feature", "properties": { "road_id": "BLK-ROAD-187", "segment_id": "BLK-187-9002063800656138006299" }, "geometry": { "type": "LineString", "coordinates": [ [ -84.457811582168077, 42.251134470126466 ], [ -84.457817499736009, 42.253310585458792 ] ] } },
{ "type": "Feature", "properties": { "road_id": "BLK-ROAD-188", "segment_id": "BLK-188-9090083800656238006561" }, "geometry": { "type": "LineString", "coordinates": [ [ -84.458995419469986, 42.251138937564761 ], [ -84.457811582168077, 42.251134470126466 ] ] } },
{ "type": "Feature", "properties": { "road_id": "BLK-ROAD-189", "segment_id": "BLK-189-9090083800656338006562" }, "geometry": { "type": "LineString", "coordinates": [ [ -84.460143847316246, 42.251142899049377 ], [ -84.458995419469986, 42.251138937564761 ] ] } },
{ "type": "Feature", "properties": { "road_id": "BLK-ROAD-190", "segment_id": "BLK-190-9090083800656538006563" }, "geometry": { "type": "LineString", "coordinates": [ [ -84.461312871218368, 42.25113608273189 ], [ -84.460143847316246, 42.251142899049377 ] ] } },
{ "type": "Feature", "properties": { "road_id": "BLK-ROAD-191", "segment_id": "BLK-191-9090083800656938006565" }, "geometry": { "type": "LineString", "coordinates": [ [ -84.462592328075843, 42.25113751420497 ], [ -84.461312871218368, 42.25113608273189 ] ] } },
{ "type": "Feature", "properties": { "road_id": "BLK-ROAD-192", "segment_id": "BLK-192-8998063800656938006204" }, "geometry": { "type": "LineString", "coordinates": [ [ -84.462592328075843, 42.25113751420497 ], [ -84.462535074251164, 42.253090126775831 ], [ -84.462488287752635, 42.253382046355561 ], [ -84.462400102065359, 42.253627769015246 ], [ -84.462236462520124, 42.253955829334778 ], [ -84.462061956799815, 42.254237081185011 ] ] } },
{ "type": "Feature", "properties": { "road_id": "BLK-ROAD-193", "segment_id": "BLK-193-9090083800658138006569" }, "geometry": { "type": "LineString", "coordinates": [ [ -84.468776806507776, 42.251167188451952 ], [ -84.466945176766501, 42.251171249143198 ], [ -84.465076897890853, 42.251156878119282 ], [ -84.462592328075843, 42.25113751420497 ] ] } },
{ "type": "Feature", "properties": { "road_id": "BLK-ROAD-194", "segment_id": "BLK-194-9002033800658138006163" }, "geometry": { "type": "LineString", "coordinates": [ [ -84.468776806507776, 42.251167188451952 ], [ -84.468774187434519, 42.25471330947277 ] ] } },
{ "type": "Feature", "properties": { "road_id": "BLK-ROAD-195", "segment_id": "BLK-195-9049093800650683026697" }, "geometry": { "type": "LineString", "coordinates": [ [ -84.482683887430468, 42.251904717662619 ], [ -84.481809004632368, 42.251064414423894 ], [ -84.481776745352676, 42.251014199838281 ] ] } },
{ "type": "Feature", "properties": { "road_id": "BLK-ROAD-196", "segment_id": "BLK-196-9002073800660638006477" }, "geometry": { "type": "LineString", "coordinates": [ [ -84.450024990313338, 42.250470559711566 ], [ -84.450011121197576, 42.251705139413694 ] ] } },
{ "type": "Feature", "properties": { "road_id": "BLK-ROAD-197", "segment_id": "BLK-197-33812643800661938006617" }, "geometry": { "type": "LineString", "coordinates": [ [ -84.448951227113952, 42.250441993992041 ], [ -84.447921329337561, 42.25046512098249 ] ] } },
{ "type": "Feature", "properties": { "road_id": "BLK-ROAD-198", "segment_id": "BLK-198-9002083800661938006503" }, "geometry": { "type": "LineString", "coordinates": [ [ -84.448951227113952, 42.250441993992041 ], [ -84.448937267603441, 42.251496686911203 ] ] } },
{ "type": "Feature", "properties": { "road_id": "BLK-ROAD-199", "segment_id": "BLK-199-33812643800660638006619" }, "geometry": { "type": "LineString", "coordinates": [ [ -84.450024990313338, 42.250470559711566 ], [ -84.449894393708504, 42.250462650489723 ], [ -84.448951227113952, 42.250441993992041 ] ] } },
{ "type": "Feature", "properties": { "road_id": "BLK-ROAD-200", "segment_id": "BLK-200-9100053800670338006459" }, "geometry": { "type": "LineString", "coordinates": [ [ -84.433209897386135, 42.249372477378749 ], [ -84.433215089216205, 42.249941133409955 ], [ -84.433205617062654, 42.250058986841509 ], [ -84.433210924132169, 42.250215108786712 ], [ -84.433191960655847, 42.251476262345392 ], [ -84.43318218224573, 42.251539749790105 ], [ -84.433159555287503, 42.251627293534121 ], [ -84.433131022458682, 42.251677010076996 ] ] } },
{ "type": "Feature", "properties": { "road_id": "BLK-ROAD-201", "segment_id": "BLK-201-8981103800664338006164" }, "geometry": { "type": "LineString", "coordinates": [ [ -84.475741776559673, 42.249619202799771 ], [ -84.475622995848781, 42.251037066353213 ], [ -84.4755219857973, 42.25134059275711 ], [ -84.475315602712897, 42.251624841866807 ], [ -84.475086248804061, 42.251851357664329 ], [ -84.474400235383484, 42.252382596649838 ], [ -84.474172335752229, 42.252567315627005 ], [ -84.473675620082972, 42.252997181456337 ], [ -84.473542550673642, 42.25319784151062 ], [ -84.473481701203468, 42.253399493568104 ], [ -84.473470580998551, 42.253714052885101 ], [ -84.473514479564443, 42.254192823953566 ], [ -84.473511190073225, 42.25478975612549 ] ] } },
{ "type": "Feature", "properties": { "road_id": "BLK-ROAD-202", "segment_id": "BLK-202-8998023800664338006278" }, "geometry": { "type": "LineString", "coordinates": [ [ -84.475741776559673, 42.249619202799771 ], [ -84.476014061551467, 42.253593354085162 ] ] } },
{ "type": "Feature", "properties": { "road_id": "BLK-ROAD-203", "segment_id": "BLK-203-9002063800676938006561" }, "geometry": { "type": "LineString", "coordinates": [ [ -84.457819852346262, 42.249115523254765 ], [ -84.457811582168077, 42.251134470126466 ] ] } },
{ "type": "Feature", "properties": { "road_id": "BLK-ROAD-204", "segment_id": "BLK-204-33817383800676938006773" }, "geometry": { "type": "LineString", "coordinates": [ [ -84.457819852346262, 42.249115523254765 ], [ -84.45899783382265, 42.249129814033019 ] ] } },
{ "type": "Feature", "properties": { "road_id": "BLK-ROAD-205", "segment_id": "BLK-205-33800523800677338006562" }, "geometry": { "type": "LineString", "coordinates": [ [ -84.45899783382265, 42.249129814033019 ], [ -84.458997488215203, 42.249917911835809 ], [ -84.458993610187193, 42.250052968157569 ], [ -84.458989744891809, 42.250192918603297 ], [ -84.458995419469986, 42.251138937564761 ] ] } },
{ "type": "Feature", "properties": { "road_id": "BLK-ROAD-206", "segment_id": "BLK-206-33817383800677338006775" }, "geometry": { "type": "LineString", "coordinates": [ [ -84.45899783382265, 42.249129814033019 ], [ -84.460159660250454, 42.249124790100623 ] ] } },
{ "type": "Feature", "properties": { "road_id": "BLK-ROAD-207", "segment_id": "BLK-207-9107053800677538006563" }, "geometry": { "type": "LineString", "coordinates": [ [ -84.460159660250454, 42.249124790100623 ], [ -84.460143847316246, 42.251142899049377 ] ] } },
{ "type": "Feature", "properties": { "road_id": "BLK-ROAD-208", "segment_id": "BLK-208-8998063800676138006569" }, "geometry": { "type": "LineString", "coordinates": [ [ -84.462597241343886, 42.249156988952052 ], [ -84.462592328075843, 42.25113751420497 ] ] } },
{ "type": "Feature", "properties": { "road_id": "BLK-ROAD-209", "segment_id": "BLK-209-33817383800677538006777" }, "geometry": { "type": "LineString", "coordinates": [ [ -84.460159660250454, 42.249124790100623 ], [ -84.461309194333822, 42.249112148098568 ] ] } },
{ "type": "Feature", "properties": { "road_id": "BLK-ROAD-210", "segment_id": "BLK-210-9002053800677738006565" }, "geometry": { "type": "LineString", "coordinates": [ [ -84.461309194333822, 42.249112148098568 ], [ -84.461312871218368, 42.25113608273189 ] ] } },
{ "type": "Feature", "properties": { "road_id": "BLK-ROAD-211", "segment_id": "BLK-211-33817383800677738006761" }, "geometry": { "type": "LineString", "coordinates": [ [ -84.461309194333822, 42.249112148098568 ], [ -84.462597241343886, 42.249156988952052 ] ] } },
{ "type": "Feature", "properties": { "road_id": "BLK-ROAD-212", "segment_id": "BLK-212-33817383800676138006757" }, "geometry": { "type": "LineString", "coordinates": [ [ -84.462597241343886, 42.249156988952052 ], [ -84.463826603534997, 42.249142244519049 ] ] } },
{ "type": "Feature", "properties": { "road_id": "BLK-ROAD-213", "segment_id": "BLK-213-8998013800663238006285" }, "geometry": { "type": "LineString", "coordinates": [ [ -84.476137647455531, 42.24928830251406 ], [ -84.476386858492205, 42.253724023431324 ] ] } },
{ "type": "Feature", "properties": { "road_id": "BLK-ROAD-214", "segment_id": "BLK-214-8981083800617238006632" }, "geometry": { "type": "LineString", "coordinates": [ [ -84.479077444877788, 42.254831361351023 ], [ -84.47905052561876, 42.254322189425331 ], [ -84.479017363625729, 42.253822394575337 ], [ -84.478991391259626, 42.253491966862477 ], [ -84.478959591299812, 42.253243271479803 ], [ -84.478861787817877, 42.25305291486778 ], [ -84.478703597996343, 42.252847626227165 ], [ -84.477591227676996, 42.252053137627364 ], [ -84.476981215493367, 42.2515547692268 ], [ -84.476645692830644, 42.251137737766157 ], [ -84.476453930849473, 42.250806078764413 ], [ -84.476357227779246, 42.25056031898216 ], [ -84.476302142490297, 42.250294761056153 ], [ -84.476137647455531, 42.24928830251406 ] ] } },
{ "type": "Feature", "properties": { "road_id": "BLK-ROAD-215", "segment_id": "BLK-215-8972073801927738006740" }, "geometry": { "type": "LineString", "coordinates": [ [ -84.446577735687939, 42.251002555409734 ], [ -84.445705931688224, 42.250827611016049 ], [ -84.445247326134378, 42.250714329899921 ], [ -84.44484953689512, 42.250566278653849 ], [ -84.444536189534688, 42.250397143792568 ], [ -84.444241267361093, 42.250210456679987 ], [ -84.443930069681528, 42.249956752025525 ], [ -84.443678783942474, 42.249703885026456 ], [ -84.442931816963153, 42.248597088145353 ] ] } },
{ "type": "Feature", "properties": { "road_id": "BLK-ROAD-216", "segment_id": "BLK-216-8981198302669638021737" }, "geometry": { "type": "LineString", "coordinates": [ [ -84.479899598160571, 42.251813670993307 ], [ -84.478629684998253, 42.250939025533192 ], [ -84.478459820276896, 42.250782569688091 ], [ -84.478385362957212, 42.25064351925564 ], [ -84.478364714947617, 42.250509658950989 ], [ -84.478356358986986, 42.2501221711425 ], [ -84.478367922301189, 42.249173931051729 ], [ -84.478379197301678, 42.248719923169773 ], [ -84.478403928522951, 42.24867132471627 ] ] } },
{ "type": "Feature", "properties": { "road_id": "BLK-ROAD-217", "segment_id": "BLK-217-8981193802173738006852" }, "geometry": { "type": "LineString", "coordinates": [ [ -84.478403928522951, 42.24867132471627 ], [ -84.478410699246069, 42.248658019355986 ], [ -84.47846029878599, 42.248627163021524 ], [ -84.480478606862661, 42.248649292701323 ], [ -84.481583964172543, 42.248630883937338 ] ] } },
{ "type": "Feature", "properties": { "road_id": "BLK-ROAD-218", "segment_id": "BLK-218-9049098302669738006852" }, "geometry": { "type": "LineString", "coordinates": [ [ -84.481776745352676, 42.251014199838281 ], [ -84.481637874361056, 42.250714773542867 ], [ -84.48161233150779, 42.250536321554513 ], [ -84.481583964172543, 42.248630883937338 ] ] } },
{ "type": "Feature", "properties": { "road_id": "BLK-ROAD-219", "segment_id": "BLK-219-33808923801724338006889" }, "geometry": { "type": "LineString", "coordinates": [ [ -84.44931456119005, 42.248459012511013 ], [ -84.449162988405689, 42.248417634511071 ], [ -84.449033244302086, 42.248388514554428 ], [ -84.448893900308207, 42.24837564565258 ], [ -84.448769185003869, 42.248365711179567 ], [ -84.448675836990944, 42.248350753249987 ], [ -84.448608175123226, 42.248337519631981 ], [ -84.448533786776139, 42.248299614996988 ], [ -84.448237757745972, 42.248061795021393 ] ] } },
{ "type": "Feature", "properties": { "road_id": "BLK-ROAD-220", "segment_id": "BLK-220-33808913800688938006898" }, "geometry": { "type": "LineString", "coordinates": [ [ -84.448237757745972, 42.248061795021393 ], [ -84.447787730520716, 42.248054802954812 ] ] } },
{ "type": "Feature", "properties": { "road_id": "BLK-ROAD-221", "segment_id": "BLK-221-33808913801724338006889" }, "geometry": { "type": "LineString", "coordinates": [ [ -84.44931456119005, 42.248459012511013 ], [ -84.449375263872895, 42.248453368086324 ], [ -84.449412593201217, 42.248430677843544 ], [ -84.449435398641157, 42.248400956871158 ], [ -84.449451234320392, 42.248356119806886 ], [ -84.449439823875878, 42.248298613850878 ], [ -84.44937589799342, 42.248210336229583 ], [ -84.449385179457408, 42.248134003607731 ], [ -84.449399869404914, 42.248061842363875 ], [ -84.449396048924015, 42.247994884140638 ], [ -84.449377395175048, 42.247933181176272 ], [ -84.449334582173194, 42.24788206380903 ], [ -84.449282203962809, 42.247845831652924 ], [ -84.449223831604286, 42.247828632228725 ], [ -84.449142826582687, 42.247834328158405 ], [ -84.449001964470384, 42.247881515111906 ], [ -84.448871986885777, 42.247934316270971 ], [ -84.448681108683871, 42.247997188664385 ], [ -84.448496466284354, 42.248031475872963 ], [ -84.448237757745972, 42.248061795021393 ] ] } },
{ "type": "Feature", "properties": { "road_id": "BLK-ROAD-222", "segment_id": "BLK-222-8972073800674038006945" }, "geometry": { "type": "LineString", "coordinates": [ [ -84.442931816963153, 42.248597088145353 ], [ -84.442725656968051, 42.248296859335134 ], [ -84.442426681300617, 42.248034415556297 ], [ -84.442226499014041, 42.247893577241186 ], [ -84.441894726061392, 42.247702742150437 ] ] } },
{ "type": "Feature", "properties": { "road_id": "BLK-ROAD-223", "segment_id": "BLK-223-9100053800693138006703" }, "geometry": { "type": "LineString", "coordinates": [ [ -84.433184619972238, 42.247414418023801 ], [ -84.433209897386135, 42.249372477378749 ] ] } },
{ "type": "Feature", "properties": { "road_id": "BLK-ROAD-224", "segment_id": "BLK-224-8972073800693238006931" }, "geometry": { "type": "LineString", "coordinates": [ [ -84.434433794352259, 42.247405451847776 ], [ -84.433184619972238, 42.247414418023801 ] ] } },
{ "type": "Feature", "properties": { "road_id": "BLK-ROAD-225", "segment_id": "BLK-225-8972073800693538006932" }, "geometry": { "type": "LineString", "coordinates": [ [ -84.435638934432902, 42.247414427130742 ], [ -84.434433794352259, 42.247405451847776 ] ] } },
{ "type": "Feature", "properties": { "road_id": "BLK-ROAD-226", "segment_id": "BLK-226-8972073800694138006935" }, "geometry": { "type": "LineString", "coordinates": [ [ -84.43927824381926, 42.247412001893267 ], [ -84.435638934432902, 42.247414427130742 ] ] } },
{ "type": "Feature", "properties": { "road_id": "BLK-ROAD-227", "segment_id": "BLK-227-9091053800694938006945" }, "geometry": { "type": "LineString", "coordinates": [ [ -84.442735619734933, 42.247452425475799 ], [ -84.442453015130042, 42.247442089066084 ], [ -84.442243162257085, 42.247437352767236 ], [ -84.442126945815019, 42.247451861350854 ], [ -84.442043960136516, 42.247488354802243 ], [ -84.441974585880999, 42.247559108660724 ], [ -84.441894726061392, 42.247702742150437 ] ] } },
{ "type": "Feature", "properties": { "road_id": "BLK-ROAD-228", "segment_id": "BLK-228-8972073800694538006941" }, "geometry": { "type": "LineString", "coordinates": [ [ -84.441894726061392, 42.247702742150437 ], [ -84.441527503861906, 42.24757208928105 ], [ -84.441235652552038, 42.24750120528423 ], [ -84.440897878159689, 42.247440265615133 ], [ -84.440622963417439, 42.247420035690794 ], [ -84.440285363866451, 42.247409838876123 ], [ -84.43927824381926, 42.247412001893267 ] ] } },
{ "type": "Feature", "properties": { "road_id": "BLK-ROAD-229", "segment_id": "BLK-229-33808903800689838006953" }, "geometry": { "type": "LineString", "coordinates": [ [ -84.447787730520716, 42.248054802954812 ], [ -84.447648356107806, 42.248127064394694 ], [ -84.447475379659835, 42.248193671053286 ], [ -84.44730897275052, 42.248230170475246 ], [ -84.447036496344225, 42.248213419399463 ], [ -84.446646341737846, 42.248143252901059 ], [ -84.446224973733791, 42.248044607861623 ], [ -84.445804481571741, 42.247911461711411 ], [ -84.445549583312584, 42.247775386367572 ], [ -84.445313563283904, 42.247629599383721 ], [ -84.445154616711875, 42.247454101999942 ] ] } },
{ "type": "Feature", "properties": { "road_id": "BLK-ROAD-230", "segment_id": "BLK-230-33808903800694338006898" }, "geometry": { "type": "LineString", "coordinates": [ [ -84.4471708370626, 42.247477289772092 ], [ -84.447415812915708, 42.247565150571972 ], [ -84.447521555050926, 42.247631338402776 ], [ -84.447580479866701, 42.247711971610123 ], [ -84.447604688099474, 42.24778780478259 ], [ -84.447648119524629, 42.247907047031788 ], [ -84.447787730520716, 42.248054802954812 ] ] } },
{ "type": "Feature", "properties": { "road_id": "BLK-ROAD-231", "segment_id": "BLK-231-9106103800697038006961" }, "geometry": { "type": "LineString", "coordinates": [ [ -84.457835977156861, 42.247446820953115 ], [ -84.455275902838565, 42.247456027371342 ], [ -84.453039456984285, 42.247456341896438 ] ] } },
{ "type": "Feature", "properties": { "road_id": "BLK-ROAD-232", "segment_id": "BLK-232-9002063800697038006769" }, "geometry": { "type": "LineString", "coordinates": [ [ -84.457835977156861, 42.247446820953115 ], [ -84.457819852346262, 42.249115523254765 ] ] } },
{ "type": "Feature", "properties": { "road_id": "BLK-ROAD-233", "segment_id": "BLK-233-9106103800697138006970" }, "geometry": { "type": "LineString", "coordinates": [ [ -84.458965678247182, 42.247447700443054 ], [ -84.457835977156861, 42.247446820953115 ] ] } },
{ "type": "Feature", "properties": { "road_id": "BLK-ROAD-234", "segment_id": "BLK-234-9106103800697238006971" }, "geometry": { "type": "LineString", "coordinates": [ [ -84.459027706509602, 42.247448181140292 ], [ -84.458965678247182, 42.247447700443054 ] ] } },
{ "type": "Feature", "properties": { "road_id": "BLK-ROAD-235", "segment_id": "BLK-235-33800523800697238006773" }, "geometry": { "type": "LineString", "coordinates": [ [ -84.459027706509602, 42.247448181140292 ], [ -84.45899783382265, 42.249129814033019 ] ] } },
{ "type": "Feature", "properties": { "road_id": "BLK-ROAD-236", "segment_id": "BLK-236-9106103800697538006972" }, "geometry": { "type": "LineString", "coordinates": [ [ -84.460185809147319, 42.247456089620314 ], [ -84.459742174299734, 42.247456769042785 ], [ -84.459027706509602, 42.247448181140292 ] ] } },
{ "type": "Feature", "properties": { "road_id": "BLK-ROAD-237", "segment_id": "BLK-237-9107053800697538006775" }, "geometry": { "type": "LineString", "coordinates": [ [ -84.460185809147319, 42.247456089620314 ], [ -84.460186556584077, 42.24759414038347 ], [ -84.460159660250454, 42.249124790100623 ] ] } },
{ "type": "Feature", "properties": { "road_id": "BLK-ROAD-238", "segment_id": "BLK-238-9106103800697738006975" }, "geometry": { "type": "LineString", "coordinates": [ [ -84.461320771900745, 42.247454347138039 ], [ -84.460185809147319, 42.247456089620314 ] ] } },
{ "type": "Feature", "properties": { "road_id": "BLK-ROAD-239", "segment_id": "BLK-239-9002053800697738006777" }, "geometry": { "type": "LineString", "coordinates": [ [ -84.461320771900745, 42.247454347138039 ], [ -84.461309194333822, 42.249112148098568 ] ] } },
{ "type": "Feature", "properties": { "road_id": "BLK-ROAD-240", "segment_id": "BLK-240-9106103800697938006977" }, "geometry": { "type": "LineString", "coordinates": [ [ -84.462583648233462, 42.247465373120853 ], [ -84.461320771900745, 42.247454347138039 ] ] } },
{ "type": "Feature", "properties": { "road_id": "BLK-ROAD-241", "segment_id": "BLK-241-8998063800697938006761" }, "geometry": { "type": "LineString", "coordinates": [ [ -84.462583648233462, 42.247465373120853 ], [ -84.462597241343886, 42.249156988952052 ] ] } },
{ "type": "Feature", "properties": { "road_id": "BLK-ROAD-242", "segment_id": "BLK-242-9002023800698038006165" }, "geometry": { "type": "LineString", "coordinates": [ [ -84.471203621893821, 42.24757088321423 ], [ -84.47121370586693, 42.24764419604228 ], [ -84.471201808327891, 42.254728714662335 ] ] } },
{ "type": "Feature", "properties": { "road_id": "BLK-ROAD-243", "segment_id": "BLK-243-9002033800698938006581" }, "geometry": { "type": "LineString", "coordinates": [ [ -84.468792079930566, 42.247482468407625 ], [ -84.468802738503967, 42.250054136922508 ], [ -84.468776806507776, 42.251167188451952 ] ] } },
{ "type": "Feature", "properties": { "road_id": "BLK-ROAD-244", "segment_id": "BLK-244-9174063800698038006989" }, "geometry": { "type": "LineString", "coordinates": [ [ -84.471203621893821, 42.24757088321423 ], [ -84.471180158199246, 42.247530805061174 ], [ -84.471150574691919, 42.247500337716254 ], [ -84.471096351518838, 42.247484561434433 ], [ -84.47088829106788, 42.247472678054116 ], [ -84.468792079930566, 42.247482468407625 ] ] } },
{ "type": "Feature", "properties": { "road_id": "BLK-ROAD-245", "segment_id": "BLK-245-8998023800700338006643" }, "geometry": { "type": "LineString", "coordinates": [ [ -84.475664408146727, 42.247441829931184 ], [ -84.475741776559673, 42.249619202799771 ] ] } },
{ "type": "Feature", "properties": { "road_id": "BLK-ROAD-246", "segment_id": "BLK-246-33813773800700238007003" }, "geometry": { "type": "LineString", "coordinates": [ [ -84.476039277658799, 42.247440588884167 ], [ -84.475664408146727, 42.247441829931184 ] ] } },
{ "type": "Feature", "properties": { "road_id": "BLK-ROAD-247", "segment_id": "BLK-247-8998013800700238006632" }, "geometry": { "type": "LineString", "coordinates": [ [ -84.476039277658799, 42.247440588884167 ], [ -84.476137647455531, 42.24928830251406 ] ] } }
]
}
